KBOSawos
http://pbs.twimg.com/profile_images/1116651581/KBOS_400x400.gif
AV Tweets suspended, tell us what you think at http://t.co/J3gHudwv #wx #weather #airport
AV Tweets retiring, read about it at http://t.co/J3gHudwv #wx #weather #awos
AV Tweets suspended, tell us what you think at http://t.co/J3gHudwv #wx #weather #airport
AV Mobile takes over AV Tweets, take brief survey at http://t.co/J3gHudwv #wx #weather #pilot
AV Mobile replaces AV Tweets, learn more at http://t.co/J3gHudwv #wx #weather #aviation
AWOS #KBOS 131454Z 34008KT 10SM FEW055 13/M01 A3014 RMK AO2 SLP204 T01281011 50001 http://t.co/rrzH12gr
AWOS #KBOS 131354Z 35008KT 10SM FEW055 11/M01 A3015 RMK AO2 SLP207 T01111006 http://t.co/rrzH12gr
AWOS #KBOS 131254Z 32008KT 10SM FEW090 09/00 A3015 RMK AO2 SLP208 T00940000 http://t.co/rrzH12gr
AWOS #KBOS 131154Z 31006KT 10SM FEW090 07/01 A3013 RMK AO2 SLP203 70032 T00720011 10072 20050 53015 http://t.co/rrzH12gr
AWOS #KBOS 131054Z 30008KT 10SM FEW090 06/01 A3012 RMK AO2 SLP197 T00560006 http://t.co/rrzH12gr
AWOS #KBOS 130954Z 32008KT 10SM CLR 05/01 A3010 RMK AO2 SLP192 T00500011 http://t.co/rrzH12gr
AWOS #KBOS 130854Z 31007KT 10SM FEW060 06/01 A3009 RMK AO2 SLP187 T00560011 53004 http://t.co/rrzH12gr
AWOS #KBOS 130754Z 32005KT 10SM CLR 05/02 A3008 RMK AO2 SLP186 T00500022 http://t.co/rrzH12gr
AWOS #KBOS 130654Z 29006KT 10SM CLR 06/03 A3008 http://t.co/rrzH12gr
AWOS #KBOS 130554Z 30006KT 10SM CLR 07/03 A3007 RMK AO2 SLP183 T00670028 10083 20061 50003 http://t.co/rrzH12gr
AWOS #KBOS 130454Z 30007KT 10SM FEW050 SCT095 06/03 A3008 RMK AO2 SLP186 T00610028 401330061 http://t.co/rrzH12gr
AWOS #KBOS 130354Z 36005KT 10SM FEW065 BKN100 07/03 A3007 RMK AO2 SLP183 T00670033 http://t.co/rrzH12gr
AWOS #KBOS 130254Z 34010KT 10SM FEW085 07/03 A3007 RMK AO2 SLP180 T00720033 51010 @KPSOawos
AWOS #KBOS 130154Z 30007KT 10SM BKN060 OVC075 08/03 A3006 RMK AO2 SLP179 T00780033 http://t.co/rrzH12gr
AWOS #KBOS 130054Z 30007KT 10SM FEW040 SCT060 SCT090 BKN250 07/04 A3006 RMK AO2 SLP177 T00720039 http://t.co/rrzH12gr
AWOS #KBOS 122354Z 33005KT 10SM FEW035 SCT060 BKN090 BKN250 08/03 A3003 RMK AO2 SLP170 60015 T00780033 10094 20072 53008
AWOS #KBOS 122254Z 00000KT 10SM FEW030 SCT060 BKN080 BKN250 09/03 A3001 RMK AO2 SLP162 T00890028 http://t.co/rrzH12gr
AWOS #KBOS 122154Z 29011KT 10SM FEW025 SCT050 BKN090 BKN250 08/04 A3001 RMK AO2 WSHFT 2056 RAB2058E42 SLP160 P0002 T00780039
AWOS #KBOS 122116Z 33011KT 5SM -RA BR FEW023 BKN033 BKN085 07/04 A3002 http://t.co/rrzH12gr
AWOS #KBOS 122054Z 02004KT 10SM FEW020 BKN035 BKN090 08/05 A3001 RMK AO2 RAE29 PRESRR SLP161 P0003 60013 T00830050 53008
AWOS #KBOS 122022Z 20005KT 10SM -RA FEW020 BKN036 BKN060 BKN250 08/05 A2998 RMK AO2 P0003 @KMNHawos
AWOS #KBOS 121954Z 33006KT 2 1/2SM RA BR FEW015 BKN025 OVC033 07/04 A2999 RMK AO2 RAE1856B12 SLP155 P0006 T00720039 http://t.co/rrzH12gr
AWOS #KBOS 121944Z COR 01006KT 2 1/2SM R04R/6000VP6000FT RABR SCT027 OVC033 08/04 A2999 http://t.co/rrzH12gr
AWOS #KBOS 121854Z 29011KT 10SM -RA FEW020 BKN035 OVC049 09/04 A2998 RMK AO2 SLP150 P0004 T00890044 http://t.co/rrzH12gr
AWOS #KBOS 121754Z 30008KT 3SM RA FEW017 OVC030 07/04 A2999 RMK AO2 SLP153 P0014 60017 T00720039 10133 20067 50012 http://t.co/rrzH12gr
AWOS #KBOS 121735Z 36010KT 2 1/2SM R04R/6000VP6000FT +RA FEW017 BKN029 OVC034 07/04 A2999 http://t.co/rrzH12gr
AWOS #KBOS 121654Z 09013KT 5SM R04R/5000VP6000FT RA SCT035 BKN050 BKN080 08/04 A2997 RMK AO2 WSHFT 1557 SLP148 P0003 T00830039
AWOS #KBOS 121617Z 33011KT 6SM -RA SCT035 BKN050 BKN080 09/03 A2996 http://t.co/rrzH12gr
AWOS #KBOS 121554Z 06012KT 10SM -RA FEW031 BKN060 OVC070 11/03 A2995 RMK AO2 RAB36 SLP142 P0000 T01060033 http://t.co/rrzH12gr
AWOS #KBOS 121454Z 07013KT 10SM BKN045 BKN095 13/03 A2994 RMK AO2 SLP139 T01280033 50006 http://t.co/rrzH12gr
AWOS #KBOS 121354Z 03009KT 10SM SCT100 11/02 A2995 RMK AO2 SLP140 T01110022 http://t.co/rrzH12gr
AWOS #KBOS 121254Z 36009KT 10SM FEW095 09/02 A2993 RMK AO2 SLP136 T00940017 http://t.co/rrzH12gr
AWOS #KBOS 121154Z 01009KT 10SM FEW047 SCT065 BKN090 08/02 A2992 RMK AO2 SLP132 60000 T00780022 10078 20067 51017 @K3MWawos
AWOS #KBOS 121054Z 35008KT 10SM BKN060 BKN090 07/03 A2991 RMK AO2 SLP128 T00720028 $ http://t.co/rrzH12gr
AWOS #KBOS 120954Z 36009KT 10SM BKN055 BKN075 BKN090 08/03 A2989 RMK AO2 RAB28E45 SLP121 P0000 T00780028 http://t.co/rrzH12gr
AWOS #KBOS 120854Z 36006KT 10SM BKN100 07/02 A2987 RMK AO2 SLP116 T00670022 53004 http://t.co/rrzH12gr
AWOS #KBOS 120754Z 36007KT 10SM SCT100 07/02 A2986 http://t.co/rrzH12gr
AWOS #KBOS 120654Z 34007KT 10SM SCT100 07/02 A2986 http://t.co/rrzH12gr
AWOS #KBOS 120554Z 34004KT 10SM SCT080 BKN100 07/02 A2986 RMK AO2 SLP112 T00720022 10083 20067 56001 @K55Mawos
AWOS #KBOS 120454Z 32006KT 10SM SCT070 SCT090 08/02 A2986 RMK AO2 SLP112 T00780022 401220067 http://t.co/rrzH12gr
AWOS #KBOS 120354Z 30008KT 10SM SCT100 08/01 A2986 RMK AO2 SLP111 T00830011 http://t.co/rrzH12gr
AWOS #KBOS 120254Z 32006KT 10SM SCT110 08/02 A2986 RMK AO2 SLP112 T00830017 51006 http://t.co/rrzH12gr
AWOS #KBOS 120154Z 35003KT 10SM FEW100 08/03 A2986 RMK AO2 SLP111 T00780033 http://t.co/rrzH12gr
AWOS #KBOS 120054Z 03005KT 10SM FEW100 07/03 A2986 RMK AO2 SLP110 T00670033 http://t.co/rrzH12gr
AWOS #KBOS 112354Z 07006KT 10SM SCT100 08/04 A2985 RMK AO2 SLP106 T00780039 10117 20078 51018 http://t.co/rrzH12gr
AWOS #KBOS 112254Z 07009KT 10SM BKN060 BKN100 08/04 A2983 RMK AO2 SLP100 T00830039 http://t.co/rrzH12gr
AWOS #KBOS 112154Z 07010KT 10SM BKN060 BKN100 09/03 A2981 RMK AO2 SLP095 T00890033 http://t.co/rrzH12gr
AWOS #KBOS 112054Z 08011KT 10SM BKN040 BKN100 09/03 A2979 RMK AO2 SLP088 T00940028 53003 http://t.co/rrzH12gr
AWOS #KBOS 111954Z 07012KT 10SM SCT040 BKN100 10/03 A2979 @KFNLawos
AWOS #KBOS 111854Z 08013KT 10SM BKN040 BKN100 09/02 A2978 RMK AO2 SLP084 T00940022 http://t.co/rrzH12gr
AWOS #KBOS 111754Z 10016KT 10SM FEW045 SCT095 SCT250 11/02 A2978 RMK AO2 SLP084 T01110022 10122 20083 56013 http://t.co/rrzH12gr
AWOS #KBOS 111654Z 09012KT 10SM FEW045 SCT095 SCT250 12/00 A2978 RMK AO2 SLP085 T01170000 http://t.co/rrzH12gr
AWOS #KBOS 111554Z 10010KT 10SM R04R/3000VP6000FT FEW065 SCT100 SCT250 12/01 A2980 RMK AO2 SLP090 T01170006 http://t.co/rrzH12gr
AWOS #KBOS 111454Z 04006KT 10SM FEW065 SCT095 SCT250 12/00 A2982 http://t.co/rrzH12gr
AWOS #KBOS 111354Z 02008KT 10SM FEW080 SCT095 11/00 A2983 RMK AO2 SLP100 T01060000 http://t.co/rrzH12gr
AWOS #KBOS 111254Z 34008KT 10SM SCT070 SCT080 09/M02 A2981 RMK AO2 SLP094 T00941017 http://t.co/rrzH12gr
AWOS #KBOS 111154Z VRB05KT 10SM BKN060 BKN080 08/M02 A2981 http://t.co/rrzH12gr
AWOS #KBOS 111054Z 35003KT 10SM SCT070 BKN085 08/M02 A2981 RMK AO2 SLP092 T00781022 http://t.co/rrzH12gr
AWOS #KBOS 110954Z 35008KT 10SM BKN080 08/M03 A2978 RMK AO2 SLP083 T00781028 $ http://t.co/rrzH12gr
AWOS #KBOS 110854Z 32007KT 10SM BKN080 BKN090 08/M03 A2976 RMK AO2 SLP076 T00781033 55001 @KEIKawos
AWOS #KBOS 110754Z 31006KT 10SM BKN090 09/M03 A2974 RMK AO2 SLP071 T00891033 @KPSOawos
AWOS #KBOS 110654Z 32008KT 10SM BKN085 09/M03 A2975 http://t.co/rrzH12gr
AWOS #KBOS 110554Z 30009KT 10SM FEW085 BKN110 10/M04 A2976 RMK AO2 SLP076 T01001039 10139 20100 51006 http://t.co/rrzH12gr
AWOS #KBOS 110454Z 33010KT 10SM BKN065 11/M03 A2976 RMK AO2 SLP076 T01061028 401720061 http://t.co/rrzH12gr
AWOS #KBOS 110354Z 34004KT 10SM BKN075 12/M02 A2975 RMK AO2 SLP074 T01171022 http://t.co/rrzH12gr
AWOS #KBOS 110254Z 32004KT 10SM BKN070 BKN095 12/M03 A2974 RMK AO2 SLP071 T01221028 51022 @KAEJawos
AWOS #KBOS 110154Z 00000KT 10SM BKN060 OVC075 12/M01 A2973 RMK AO2 SLP068 T01171011 http://t.co/rrzH12gr
AWOS #KBOS 110054Z 05005KT 10SM FEW070 BKN090 OVC110 12/M02 A2972 RMK AO2 SLP062 T01171017 http://t.co/rrzH12gr
AWOS #KBOS 102354Z 00000KT 10SM BKN090 OVC110 13/M02 A2968 RMK AO2 SLP049 T01281022 10172 20128 53025 http://t.co/rrzH12gr
AWOS #KBOS 102254Z 00000KT 10SM OVC100 15/M06 A2964 RMK AO2 SLP038 T01501056 http://t.co/rrzH12gr
AWOS #KBOS 102154Z 31005KT 10SM OVC110 15/M06 A2962 RMK AO2 SLP030 T01501056 @K7BMawos
AWOS #KBOS 102054Z 29013G18KT 10SM BKN070 BKN250 16/M07 A2960 RMK AO2 SLP024 T01611067 53004 @K55Mawos
AWOS #KBOS 101954Z 28011G17KT 10SM BKN070 BKN250 17/M07 A2959 RMK AO2 SLP019 T01671067 http://t.co/rrzH12gr
AWOS #KBOS 101854Z 28012G21KT 10SM BKN070 BKN250 16/M07 A2959 RMK AO2 SLP018 T01611067 http://t.co/rrzH12gr
AWOS #KBOS 101754Z 25010G19KT 10SM BKN070 BKN250 17/M06 A2959 http://t.co/rrzH12gr
AWOS #KBOS 101654Z 27014G23KT 10SM FEW070 SCT250 16/M06 A2960 RMK AO2 SLP023 T01611056 http://t.co/rrzH12gr
AWOS #KBOS 101554Z 25012G21KT 10SM FEW065 BKN250 15/M04 A2961 http://t.co/rrzH12gr
AWOS #KBOS 101454Z 24016KT 10SM FEW065 SCT160 SCT250 14/M04 A2962 http://t.co/rrzH12gr
AWOS #KBOS 101354Z 26015G28KT 10SM SCT200 13/M04 A2962 RMK AO2 PK WND 25028/1346 SLP030 T01281044 http://t.co/rrzH12gr
AWOS #KBOS 101254Z 26011G21KT 10SM SCT250 11/M04 A2963 RMK AO2 SLP032 T01111044 http://t.co/rrzH12gr
AWOS #KBOS 101154Z 25011KT 10SM FEW170 SCT250 09/M05 A2963 RMK AO2 SLP031 T00891050 10094 20061 53007 http://t.co/rrzH12gr
AWOS #KBOS 101054Z 24012KT 10SM FEW170 SCT250 08/M05 A2962 RMK AO2 SLP028 T00781050 http://t.co/rrzH12gr
AWOS #KBOS 100954Z 24011KT 10SM FEW200 SCT250 07/M05 A2961 RMK AO2 SLP025 T00721050 http://t.co/rrzH12gr
AWOS #KBOS 100854Z 22008KT 10SM CLR 07/M04 A2960 RMK AO2 SLP024 T00671039 55007 http://t.co/rrzH12gr
AWOS #KBOS 100754Z 24011KT 10SM CLR 09/M04 A2960 RMK AO2 SLP023 T00891044 http://t.co/rrzH12gr
AWOS #KBOS 100654Z 24011KT 10SM BKN110 09/M04 A2961 http://t.co/rrzH12gr
AWOS #KBOS 100554Z 24010KT 10SM BKN100 09/M03 A2962 RMK AO2 SLP031 T00941033 10111 20089 50002 http://t.co/rrzH12gr
AWOS #KBOS 100354Z 24008KT 10SM SCT110 09/M02 A2963 RMK AO2 SLP033 T00941022 http://t.co/rrzH12gr
AWOS #KBOS 100254Z 26011KT 10SM SCT110 11/M03 A2962 RMK AO2 SLP029 T01061028 51006 http://t.co/rrzH12gr
AWOS #KBOS 100154Z 26012G18KT 10SM FEW065 OVC110 11/M03 A2962 RMK AO2 SLP028 T01111028 http://t.co/rrzH12gr
AWOS #KBOS 100054Z 27016G25KT 10SM FEW070 BKN110 11/M02 A2962 RMK AO2 PK WND 28026/0043 SLP029 T01111017 http://t.co/rrzH12gr
AWOS #KBOS 092354Z COR 28010G21KT 10SM FEW060 OVC110 11/M02 A2960 RMK AO2 PK WND 28027/2333 SLP023 T01111017 10144 20111 51030
AWOS #KBOS 092254Z 27014G25KT 10SM FEW040 SCT070 BKN110 OVC200 12/M02 A2958 http://t.co/rrzH12gr
AWOS #KBOS 092154Z 27014G23KT 10SM FEW040 SCT065 BKN110 BKN180 13/M02 A2955 @KAEJawos
AWOS #KBOS 092054Z 28020G28KT 10SM FEW040 BKN070 BKN110 BKN180 14/M02 A2951 http://t.co/rrzH12gr
AWOS #KBOS 091954Z 28016G23KT 10SM FEW035 SCT065 BKN160 14/M02 A2949 http://t.co/rrzH12gr
AWOS #KBOS 091854Z 26019G29KT 10SM FEW035 BKN060 OVC075 14/M02 A2949 @KEIKawos
AWOS #KBOS 091754Z 28013G25KT 10SM FEW070 BKN090 13/M01 A2949 http://t.co/rrzH12gr
AWOS #KBOS 091654Z 28019G25KT 10SM FEW049 BKN060 BKN075 OVC170 12/M01 A2949 @KANKawos
AWOS #KBOS 091554Z 26017G25KT 10SM FEW075 SCT090 BKN200 12/M01 A2949 http://t.co/rrzH12gr
AWOS #KBOS 091454Z 26017G29KT 10SM FEW090 SCT110 BKN200 11/M01 A2949 http://t.co/rrzH12gr
AWOS #KBOS 091354Z 25021G29KT 10SM FEW080 BKN200 11/00 A2950 RMK AO2 PK WND 26029/1351 SLP988 T01060000 @KEIKawos
AWOS #KBOS 091254Z 28023G30KT 10SM FEW090 BKN200 09/M01 A2949 RMK AO2 PK WND 29031/1232 SLP987 T00941006 http://t.co/rrzH12gr
AWOS #KBOS 091154Z 27012G20KT 10SM BKN100 09/00 A2951 RMK AO2 SLP991 T00890000 10100 20072 53004 http://t.co/rrzH12gr
AWOS #KBOS 091054Z 25016G22KT 10SM BKN110 08/M01 A2950 RMK AO2 SLP990 T00831006 http://t.co/rrzH12gr
AWOS #KBOS 090954Z 26013KT 10SM BKN110 09/M02 A2949 RMK AO2 SLP985 T00891017 @KALSawos
AWOS #KBOS 090854Z 25015G24KT 10SM BKN120 BKN250 09/M01 A2949 RMK AO2 SLP987 T00891006 56022 http://t.co/rrzH12gr
AWOS #KBOS 090754Z 24012KT 10SM FEW080 SCT250 09/M02 A2951 RMK AO2 SLP994 T00891022 http://t.co/rrzH12gr
AWOS #KBOS 090654Z 23011KT 10SM CLR 08/M03 A2954 RMK AO2 SLP001 T00781033 http://t.co/rrzH12gr
AWOS #KBOS 090554Z 24007KT 10SM FEW080 SCT250 07/M02 A2956 RMK AO2 SLP009 T00721017 10083 20056 58022 http://t.co/rrzH12gr
AWOS #KBOS 090454Z 23005KT 10SM FEW080 SCT250 06/01 A2958 RMK AO2 SLP018 T00610006 401000050 http://t.co/rrzH12gr
AWOS #KBOS 090354Z 14007KT 10SM FEW080 SCT250 07/02 A2960 RMK AO2 SLP023 T00670022 http://t.co/rrzH12gr
AWOS #KBOS 090254Z 11010KT 10SM BKN090 08/02 A2963 RMK AO2 SLP031 T00780017 58006 http://t.co/rrzH12gr
AWOS #KBOS 090154Z 11013KT 10SM SCT080 BKN090 08/02 A2963 RMK AO2 SLP034 T00780022 http://t.co/rrzH12gr
AWOS #KBOS 090054Z 10008KT 10SM BKN080 BKN100 08/M02 A2965 http://t.co/rrzH12gr
AWOS #KBOS 082354Z 11006KT 10SM FEW070 BKN090 BKN140 BKN250 08/M01 A2964 RMK AO2 SLP037 T00781011 10100 20078 55010 http://t.co/rrzH12gr
AWOS #KBOS 082254Z 14004KT 10SM FEW065 BKN095 BKN250 09/M04 A2964 http://t.co/rrzH12gr
AWOS #KBOS 082154Z VRB04KT 10SM FEW065 BKN085 BKN250 10/M05 A2965 RMK AO2 SLP040 T01001050 http://t.co/rrzH12gr
AWOS #KBOS 082054Z 29008KT 10SM SCT065 BKN075 09/M05 A2967 http://t.co/rrzH12gr
AWOS #KBOS 081954Z 28013KT 10SM FEW046 BKN065 OVC080 09/M05 A2968 RMK AO2 SLP050 T00941050 http://t.co/rrzH12gr
AWOS #KBOS 081854Z 30011G21KT 10SM BKN065 OVC080 09/M06 A2969 RMK AO2 SLP053 T00941056 http://t.co/rrzH12gr
AWOS #KBOS 081754Z 28011G17KT 10SM BKN065 OVC080 09/M06 A2971 http://t.co/rrzH12gr
AWOS #KBOS 081654Z 29014G19KT 10SM BKN065 OVC075 09/M07 A2973 http://t.co/rrzH12gr
AWOS #KBOS 081554Z 32009G18KT 290V350 10SM BKN065 BKN080 09/M07 A2975 RMK AO2 VIRGA VC N-E AND DSNT NW SLP073 T00891067
AWOS #KBOS 081454Z 30012G19KT 10SM FEW055 SCT070 BKN080 09/M07 A2977 RMK AO2 SLP081 SHRA DSNT N-E T00941072 58026 http://t.co/rrzH12gr
AWOS #KBOS 081354Z 32010KT 10SM FEW042 BKN080 BKN250 08/M04 A2981 http://t.co/rrzH12gr
AWOS #KBOS 081254Z 30009KT 10SM FEW040 OVC080 07/M04 A2983 RMK AO2 SLP100 T00671039 @K20Vawos
AWOS #KBOS 081154Z 31010KT 10SM FEW040 OVC085 06/M04 A2985 RMK AO2 SLP107 MDT CU DSNT E T00611039 10061 20056 58009 http://t.co/rrzH12gr
AWOS #KBOS 081054Z 32008KT 10SM FEW050 OVC085 06/M04 A2986 RMK AO2 SLP110 T00561039 http://t.co/rrzH12gr
AWOS #KBOS 080954Z 32008KT 10SM FEW055 OVC085 06/M04 A2987 RMK AO2 SLP113 T00561039 http://t.co/rrzH12gr
AWOS #KBOS 080854Z 32005KT 10SM SCT055 OVC085 06/M03 A2988 RMK AO2 SLP116 T00611033 56024 http://t.co/rrzH12gr
AWOS #KBOS 080754Z 24005KT 10SM BKN055 OVC070 06/M03 A2990 RMK AO2 SLP123 T00561033 http://t.co/rrzH12gr
AWOS #KBOS 080654Z 22005KT 10SM OVC050 06/M02 A2992 http://t.co/rrzH12gr
AWOS #KBOS 080554Z 26003KT 10SM BKN055 BKN070 OVC080 06/M03 A2995 RMK AO2 SLP140 T00561028 10061 20050 58023 http://t.co/rrzH12gr
AWOS #KBOS 080454Z 00000KT 10SM FEW060 OVC075 06/M03 A2997 RMK AO2 SLP148 T00561028 401110033 http://t.co/rrzH12gr
AWOS #KBOS 080354Z 02003KT 10SM BKN060 OVC090 06/M02 A3000 RMK AO2 SLP157 T00561022 http://t.co/rrzH12gr
AWOS #KBOS 080254Z 04008KT 10SM BKN047 OVC075 06/M03 A3002 RMK AO2 SLP164 T00561033 50007 http://t.co/rrzH12gr
AWOS #KBOS 080154Z 00000KT 10SM BKN055 OVC070 06/M03 A3002 RMK AO2 SLP164 T00611033 http://t.co/rrzH12gr
AWOS #KBOS 080054Z 00000KT 10SM OVC070 06/M04 A3001 RMK AO2 SLP162 T00611039 http://t.co/rrzH12gr
AWOS #KBOS 072354Z 10003KT 10SM OVC085 06/M04 A2999 RMK AO2 SLP156 T00561039 10083 20056 51014 http://t.co/rrzH12gr
AWOS #KBOS 072254Z 11004KT 10SM OVC080 06/M03 A2998 RMK AO2 SLP152 T00561033 http://t.co/rrzH12gr
AWOS #KBOS 072154Z 09006KT 10SM OVC080 06/M04 A2997 RMK AO2 SLP150 T00611039 http://t.co/rrzH12gr
AWOS #KBOS 072054Z 10009KT 10SM BKN075 OVC120 07/M03 A2996 RMK AO2 SLP143 T00671033 53008 http://t.co/rrzH12gr
AWOS #KBOS 071954Z 11011KT 10SM BKN075 OVC120 07/M03 A2994 RMK AO2 SLP138 T00721033 http://t.co/rrzH12gr
AWOS #KBOS 071854Z 09014KT 10SM BKN075 BKN130 07/M03 A2993 RMK AO2 SLP135 T00721033 @KEIKawos
AWOS #KBOS 071754Z 10012KT 10SM FEW070 BKN075 08/M04 A2993 RMK AO2 SLP135 T00831039 10111 20044 55013 http://t.co/rrzH12gr
AWOS #KBOS 071654Z 11014KT 10SM BKN070 09/M04 A2993 @KEIKawos
AWOS #KBOS 071554Z 30007G18KT 250V350 10SM CLR 10/M08 A2994 http://t.co/rrzH12gr
AWOS #KBOS 071454Z 36010KT 10SM FEW100 09/M09 A2997 RMK AO2 SLP148 T00941089 58007 http://t.co/rrzH12gr
AWOS #KBOS 071354Z 34006KT 10SM FEW100 08/M09 A2998 http://t.co/rrzH12gr
AWOS #KBOS 071254Z 30008KT 10SM BKN075 06/M08 A2999 RMK AO2 SLP153 T00561083 http://t.co/rrzH12gr
AWOS #KBOS 071154Z 33004KT 10SM BKN075 05/M08 A2999 RMK AO2 SLP155 T00501083 10056 20033 51008 http://t.co/rrzH12gr
AWOS #KBOS 071054Z 32007KT 10SM BKN080 04/M09 A2999 @KANKawos
AWOS #KBOS 070954Z 32007KT 10SM CLR 03/M09 A2998 RMK AO2 SLP150 T00331089 http://t.co/rrzH12gr
AWOS #KBOS 070854Z 33007KT 10SM CLR 04/M09 A2997 RMK AO2 SLP147 T00391094 53000 http://t.co/rrzH12gr
AWOS #KBOS 070754Z 34007KT 10SM CLR 04/M09 A2996 RMK AO2 SLP146 T00391094 http://t.co/rrzH12gr
AWOS #KBOS 070654Z 33011KT 10SM CLR 05/M09 A2997 RMK AO2 SLP146 T00501094 @KEIKawos
AWOS #KBOS 070554Z 32011KT 10SM CLR 06/M09 A2997 RMK AO2 SLP147 T00561089 10100 20056 58002 http://t.co/rrzH12gr
AWOS #KBOS 070454Z 32008KT 10SM CLR 06/M08 A2997 RMK AO2 SLP148 T00561083 401170028 http://t.co/rrzH12gr
AWOS #KBOS 070354Z 33009KT 10SM CLR 07/M09 A2998 RMK AO2 SLP150 T00671089 http://t.co/rrzH12gr
AWOS #KBOS 070254Z 33009KT 10SM CLR 07/M09 A2997 RMK AO2 SLP149 T00721089 51019 http://t.co/rrzH12gr
AWOS #KBOS 070154Z 34011KT 10SM CLR 08/M09 A2996 RMK AO2 SLP146 T00831089 http://t.co/rrzH12gr
AWOS #KBOS 070054Z 33010G15KT 10SM CLR 09/M09 A2995 RMK AO2 SLP140 T00941089 http://t.co/rrzH12gr
AWOS #KBOS 062354Z 34006KT 10SM FEW060 10/M09 A2992 RMK AO2 SLP130 FEW CU W T01001094 10117 20094 53014 http://t.co/rrzH12gr
AWOS #KBOS 062254Z 34009G19KT 10SM FEW060 11/M09 A2990 RMK AO2 SLP123 T01061094 @K04Vawos
AWOS #KBOS 062154Z 36011KT 10SM FEW060 11/M09 A2989 RMK AO2 SLP119 T01111094 http://t.co/rrzH12gr
AWOS #KBOS 062054Z 33014G18KT 10SM FEW060 11/M09 A2988 RMK AO2 SLP117 T01111089 55008 http://t.co/rrzH12gr
AWOS #KBOS 061954Z 30005G16KT 10SM FEW060 11/M07 A2988 http://t.co/rrzH12gr
AWOS #KBOS 061854Z 33009G22KT 10SM FEW060 11/M07 A2989 RMK AO2 SLP120 T01061067 http://t.co/rrzH12gr
AWOS #KBOS 061754Z 28009KT 250V320 10SM SCT060 10/M07 A2990 http://t.co/rrzH12gr
AWOS #KBOS 061654Z 30012G15KT 10SM BKN060 09/M07 A2992 RMK AO2 SLP132 T00891067 http://t.co/rrzH12gr
AWOS #KBOS 061554Z 31014G17KT 10SM BKN055 07/M07 A2994 http://t.co/rrzH12gr
AWOS #KBOS 061454Z 33013G18KT 10SM BKN055 08/M07 A2995 @KCPWawos
AWOS #KBOS 061354Z 34009KT 10SM FEW065 08/M07 A2994 http://t.co/rrzH12gr
AWOS #KBOS 061254Z 33011G18KT 10SM FEW060 07/M07 A2993 RMK AO2 SLP134 T00721067 http://t.co/rrzH12gr
AWOS #KBOS 061154Z 32008KT 10SM BKN060 04/M06 A2993 RMK AO2 SLP135 T00441061 10044 20028 53006 @KMNHawos
AWOS #KBOS 061054Z 30009KT 10SM SCT060 04/M06 A2992 RMK AO2 SLP129 T00391061 http://t.co/rrzH12gr
AWOS #KBOS 060954Z 29008KT 10SM FEW070 03/M06 A2991 RMK AO2 SLP128 T00281061 http://t.co/rrzH12gr
AWOS #KBOS 060854Z 29008KT 10SM FEW070 03/M06 A2991 RMK AO2 SLP129 T00281061 53003 http://t.co/rrzH12gr
AWOS #KBOS 060754Z 29007KT 10SM FEW070 03/M07 A2990 RMK AO2 SLP125 T00331067 http://t.co/rrzH12gr
AWOS #KBOS 060654Z 30009KT 10SM FEW070 04/M07 A2990 RMK AO2 SLP124 T00391067 http://t.co/rrzH12gr
AWOS #KBOS 060554Z 30008KT 10SM CLR 04/M07 A2991 RMK AO2 SLP126 T00391067 10072 20039 51006 http://t.co/rrzH12gr
AWOS #KBOS 060454Z 30009KT 10SM FEW070 04/M07 A2990 RMK AO2 SLP125 T00441067 401110044 http://t.co/rrzH12gr
AWOS #KBOS 060354Z 30011G17KT 10SM FEW070 05/M07 A2989 RMK AO2 SLP122 T00501072 http://t.co/rrzH12gr
AWOS #KBOS 060254Z 32010KT 10SM FEW060 SCT150 05/M07 A2989 RMK AO2 SLP120 T00501067 50013 http://t.co/rrzH12gr
AWOS #KBOS 060154Z 35009G16KT 10SM FEW060 SCT150 06/M07 A2989 RMK AO2 SLP122 T00561067 http://t.co/rrzH12gr
AWOS #KBOS 060054Z 34011KT 10SM FEW060 SCT150 06/M06 A2988 RMK AO2 SLP117 T00611061 http://t.co/rrzH12gr
AWOS #KBOS 052354Z 35011KT 10SM FEW060 SCT150 07/M06 A2985 RMK AO2 SLP107 T00721056 10111 20072 53026 http://t.co/rrzH12gr
AWOS #KBOS 052254Z 32014G19KT 10SM FEW060 09/M06 A2981 RMK AO2 SLP094 T00891061 http://t.co/rrzH12gr
AWOS #KBOS 052154Z 33011G17KT 10SM FEW060 10/M06 A2979 RMK AO2 SLP086 T01001056 http://t.co/rrzH12gr
AWOS #KBOS 052054Z 32011KT 290V350 10SM FEW060 11/M06 A2977 RMK AO2 SLP081 T01061056 58003 http://t.co/rrzH12gr
AWOS #KBOS 051954Z 33009KT 10SM SCT055 09/M06 A2978 http://t.co/rrzH12gr
AWOS #KBOS 051854Z 30012G16KT 10SM BKN050 09/M06 A2978 http://t.co/rrzH12gr
AWOS #KBOS 051810Z 30011G19KT 10SM BKN060 10/M06 A2978 RMK AO2 WSHFT 1750 http://t.co/rrzH12gr
AWOS #KBOS 051654Z 32010G18KT 10SM SCT055 09/M06 A2977 RMK AO2 SLP082 T00941061 http://t.co/rrzH12gr
AWOS #KBOS 051554Z 33014G20KT 10SM BKN050 09/M06 A2977 http://t.co/rrzH12gr
AWOS #KBOS 051454Z 32011KT 10SM BKN049 08/M06 A2977 RMK AO2 SLP081 T00781056 53006 http://t.co/rrzH12gr
AWOS #KBOS 051354Z 33011G20KT 10SM SCT045 08/M04 A2977 RMK AO2 SLP079 T00781044 http://t.co/rrzH12gr
AWOS #KBOS 051254Z 33011G20KT 10SM FEW045 07/M05 A2975 http://t.co/rrzH12gr
AWOS #KBOS 051154Z 33011G22KT 10SM FEW040 06/M06 A2975 RMK AO2 SLP075 T00561056 10056 20044 52022 @KANKawos
AWOS #KBOS 051054Z 34013G19KT 10SM FEW040 05/M04 A2974 http://t.co/rrzH12gr
AWOS #KBOS 050954Z 31008KT 10SM FEW040 04/M02 A2971 RMK AO2 SLP059 T00441017 @KEIKawos
AWOS #KBOS 050854Z 32010KT 10SM CLR 05/M02 A2969 RMK AO2 SLP053 T00501017 51006 @KALSawos
AWOS #KBOS 050754Z 31011KT 10SM FEW040 05/M01 A2968 RMK AO2 SLP051 T00501011 http://t.co/rrzH12gr
AWOS #KBOS 050654Z 28010KT 10SM FEW040 05/M01 A2968 RMK AO2 SLP050 T00501006 http://t.co/rrzH12gr
AWOS #KBOS 050554Z 29012KT 10SM FEW040 06/00 A2967 RMK AO2 SLP047 60000 T00560000 10106 20056 51018 http://t.co/rrzH12gr
AWOS #KBOS 050454Z 29012KT 10SM CLR 06/M01 A2965 RMK AO2 SLP041 T00611006 401780061 http://t.co/rrzH12gr
AWOS #KBOS 050354Z 32011G17KT 10SM FEW040 BKN100 07/M01 A2964 RMK AO2 SLP035 T00721011 http://t.co/rrzH12gr
AWOS #KBOS 050254Z 32015G21KT 10SM FEW040 BKN100 08/M01 A2962 RMK AO2 SLP029 60000 T00831011 53022 http://t.co/rrzH12gr
AWOS #KBOS 050154Z 32016G22KT 10SM FEW040 SCT100 08/01 A2959 RMK AO2 SLP021 T00830006 http://t.co/rrzH12gr
AWOS #KBOS 050054Z 31010KT 10SM FEW044 BKN070 OVC110 09/00 A2957 http://t.co/rrzH12gr
AWOS #KBOS 042354Z 33018G27KT 10SM FEW021 BKN055 BKN090 11/00 A2955 RMK AO2 PK WND 29033/2336 RAB39E48 PRESRR SLP007
AWOS #KBOS 042254Z 30014G22KT 10SM FEW021 SCT090 BKN100 14/M06 A2950 RMK AO2 PK WND 33027/2240 SLP988 T01391056 @K3MWawos
AWOS #KBOS 042154Z 30010KT 10SM FEW025 SCT090 SCT130 15/M07 A2947 @K20Vawos
AWOS #KBOS 042054Z 31015G21KT 10SM BKN110 16/M08 A2945 RMK AO2 PK WND 28026/2006 SLP973 T01611083 56003 http://t.co/rrzH12gr
AWOS #KBOS 041954Z 29016G25KT 10SM FEW095 17/M08 A2945 RMK AO2 PK WND 33028/1926 SLP973 T01671083 http://t.co/rrzH12gr
AWOS #KBOS 041854Z 31015G26KT 10SM SCT090 17/M09 A2946 RMK AO2 PK WND 30033/1840 SLP975 T01721089 http://t.co/rrzH12gr
AWOS #KBOS 041754Z 31014G20KT 10SM FEW065 17/M05 A2946 @KMNHawos
AWOS #KBOS 041654Z 27012G20KT 10SM FEW065 16/M06 A2949 RMK AO2 SLP986 T01561061 @K3MWawos
AWOS #KBOS 041554Z 28013G21KT 10SM FEW090 15/M07 A2952 RMK AO2 SLP994 T01501067 http://t.co/rrzH12gr
AWOS #KBOS 041454Z 27010G17KT 10SM CLR 13/M09 A2955 RMK AO2 SLP006 T01331094 58033 http://t.co/rrzH12gr
AWOS #KBOS 041354Z 33005KT 10SM FEW100 12/M10 A2960 RMK AO2 SLP021 T01221100 http://t.co/rrzH12gr
AWOS #KBOS 041254Z 32007KT 10SM FEW100 11/M09 A2962 http://t.co/rrzH12gr
AWOS #KBOS 041154Z 31007KT 10SM FEW100 09/M08 A2965 http://t.co/rrzH12gr
AWOS #KBOS 041054Z VRB04KT 10SM FEW090 09/M09 A2965 http://t.co/rrzH12gr
AWOS #KBOS 040954Z 28006KT 10SM FEW090 SCT140 07/M09 A2965 RMK AO2 SLP041 T00721094 http://t.co/rrzH12gr
AWOS #KBOS 040854Z 00000KT 10SM OVC095 08/M09 A2966 http://t.co/rrzH12gr
AWOS #KBOS 040754Z 33005KT 10SM OVC095 09/M10 A2969 RMK AO2 SLP053 T00891100 http://t.co/rrzH12gr
AWOS #KBOS 040654Z 31007KT 10SM OVC095 09/M11 A2970 http://t.co/rrzH12gr
AWOS #KBOS 040554Z 29006KT 10SM BKN100 09/M11 A2971 RMK AO2 SLP061 T00941106 10128 20094 58005 @K20Vawos
AWOS #KBOS 040454Z 33006KT 10SM BKN100 09/M12 A2971 RMK AO2 SLP061 T00941117 401500022 http://t.co/rrzH12gr
AWOS #KBOS 040354Z 33006KT 10SM BKN140 10/M12 A2973 RMK AO2 SLP067 T01001122 http://t.co/rrzH12gr
AWOS #KBOS 040254Z 33009KT 10SM FEW180 10/M12 A2973 RMK AO2 SLP066 T01001122 58005 http://t.co/rrzH12gr
AWOS #KBOS 040154Z 34004KT 10SM FEW120 SCT220 11/M12 A2973 RMK AO2 SLP068 T01061122 @KMNHawos
AWOS #KBOS 040054Z 34005KT 10SM FEW120 SCT220 11/M12 A2975 RMK AO2 SLP073 T01111122 http://t.co/rrzH12gr
AWOS #KBOS 032354Z 34008KT 10SM FEW120 BKN220 13/M13 A2974 RMK AO2 SLP070 T01281128 10150 20122 53012 http://t.co/rrzH12gr
AWOS #KBOS 032254Z 34009G17KT 10SM FEW120 BKN220 13/M12 A2971 RMK AO2 SLP061 T01281122 @KAEJawos
AWOS #KBOS 032154Z 32013G18KT 10SM SCT220 14/M12 A2970 http://t.co/rrzH12gr
AWOS #KBOS 031954Z 34013G22KT 10SM FEW220 14/M13 A2972 RMK AO2 SLP063 T01441128 http://t.co/rrzH12gr
AWOS #KBOS 031854Z 33012G21KT 10SM FEW180 14/M12 A2973 RMK AO2 SLP066 T01391117 http://t.co/rrzH12gr
AWOS #KBOS 031754Z 32016G25KT 10SM FEW180 12/M12 A2975 RMK AO2 PK WND 32028/1739 SLP074 T01221117 10122 20039 56015 http://t.co/rrzH12gr
AWOS #KBOS 031654Z 33016G23KT 10SM CLR 11/M13 A2976 RMK AO2 PK WND 35028/1617 SLP077 T01111128 @KALSawos
AWOS #KBOS 031554Z 34017G22KT 10SM CLR 09/M13 A2977 RMK AO2 SLP082 T00941128 http://t.co/rrzH12gr
AWOS #KBOS 031454Z 33015G24KT 10SM CLR 08/M13 A2979 RMK AO2 SLP089 T00831133 58013 http://t.co/rrzH12gr
AWOS #KBOS 031354Z 33013G20KT 10SM CLR 07/M13 A2982 RMK AO2 SLP096 T00671133 http://t.co/rrzH12gr
AWOS #KBOS 031254Z 32017G24KT 10SM CLR 06/M14 A2983 RMK AO2 SLP101 T00561139 http://t.co/rrzH12gr
AWOS #KBOS 031154Z 32013G19KT 10SM CLR 04/M13 A2983 RMK AO2 SLP101 T00391128 10039 20022 52016 @KANKawos
AWOS #KBOS 031054Z 30011KT 10SM CLR 03/M12 A2982 RMK AO2 SLP099 T00281122 http://t.co/rrzH12gr
AWOS #KBOS 030954Z 30011KT 10SM CLR 03/M12 A2979 RMK AO2 SLP088 T00281122 http://t.co/rrzH12gr
AWOS #KBOS 030854Z 29008G16KT 10SM CLR 03/M11 A2979 RMK AO2 SLP086 T00281111 55003 http://t.co/rrzH12gr
AWOS #KBOS 030754Z 32009KT 10SM CLR 03/M11 A2978 RMK AO2 SLP083 T00281106 http://t.co/rrzH12gr
AWOS #KBOS 030654Z 31009KT 10SM CLR 04/M10 A2979 http://t.co/rrzH12gr
AWOS #KBOS 030554Z 32009KT 10SM CLR 04/M10 A2980 RMK AO2 SLP089 T00391100 10089 20039 50001 http://t.co/rrzH12gr
AWOS #KBOS 030454Z 32010KT 10SM CLR 04/M11 A2980 RMK AO2 SLP091 T00441106 401170039 http://t.co/rrzH12gr
AWOS #KBOS 030354Z 33011KT 10SM CLR 05/M11 A2980 RMK AO2 SLP090 T00501106 http://t.co/rrzH12gr
AWOS #KBOS 030254Z 32012KT 10SM CLR 06/M11 A2979 RMK AO2 SLP088 T00561106 51020 http://t.co/rrzH12gr
AWOS #KBOS 030154Z 33015G22KT 10SM CLR 07/M12 A2979 RMK AO2 SLP086 T00671117 http://t.co/rrzH12gr
AWOS #KBOS 030054Z 34015G21KT 10SM FEW100 08/M13 A2977 RMK AO2 SLP080 T00781128 http://t.co/rrzH12gr
AWOS #KBOS 022354Z 33013G20KT 10SM FEW050 SCT095 09/M11 A2973 RMK AO2 PK WND 32027/2256 SLP068 T00891106 10117 20061 53028
AWOS #KBOS 022254Z 34018G24KT 10SM FEW050 BKN095 11/M11 A2970 RMK AO2 SLP056 T01061111 @KCCUawos
AWOS #KBOS 022154Z 00000KT 10SM FEW050 SCT085 08/02 A2968 http://t.co/rrzH12gr
AWOS #KBOS 022054Z 11007KT 10SM FEW050 SCT085 08/M01 A2965 RMK AO2 SLP040 T00781011 56009 http://t.co/rrzH12gr
AWOS #KBOS 021954Z 11007KT 10SM FEW050 SCT085 09/00 A2965 RMK AO2 SLP041 T00890000 @K20Vawos
AWOS #KBOS 021854Z 16008KT 10SM SCT055 BKN075 08/01 A2967 RMK AO2 SLP045 T00780011 http://t.co/rrzH12gr
AWOS #KBOS 021754Z 13009KT 9SM FEW016 SCT055 SCT080 07/00 A2968 RMK AO2 RAE05 SLP049 P0000 60000 T00720000 10083 20039 58015 @KCPWawos
AWOS #KBOS 021654Z 33009KT 7SM -RA FEW024 BKN037 06/01 A2971 RMK AO2 RAB47 SLP059 P0000 T00610011 @K4BMawos
AWOS #KBOS 021601Z 04012KT 10SM SCT024 SCT029 BKN050 08/02 A2971 http://t.co/rrzH12gr
AWOS #KBOS 021554Z 03012KT 10SM SCT021 BKN028 BKN065 07/01 A2971 RMK AO2 SLP061 T00670006 http://t.co/rrzH12gr
AWOS #KBOS 021541Z 03014KT 10SM SCT021 BKN028 BKN065 07/01 A2972 http://t.co/rrzH12gr
AWOS #KBOS 021529Z 02012G21KT 10SM FEW017 SCT023 OVC060 07/01 A2972 http://t.co/rrzH12gr
AWOS #KBOS 021454Z 01014G21KT 10SM OVC017 05/01 A2972 RMK AO2 PK WND 02026/1423 SLP064 T00500011 53024 http://t.co/rrzH12gr
AWOS #KBOS 021435Z 02017G25KT 10SM SCT012 BKN017 OVC031 04/01 A2972 http://t.co/rrzH12gr
AWOS #KBOS 021354Z 36018G22KT 9SM OVC013 04/02 A2970 http://t.co/rrzH12gr
AWOS #KBOS 021254Z 36014G20KT 10SM OVC013 04/02 A2967 RMK AO2 SLP047 T00440017 $ @KMYPawos
AWOS #KBOS 021218Z 35011G19KT 10SM OVC013 04/01 A2966 http://t.co/rrzH12gr
AWOS #KBOS 021154Z 36014G18KT 10SM SCT015 OVC025 04/01 A2965 http://t.co/rrzH12gr
AWOS #KBOS 021146Z 35011KT 10SM SCT015 OVC025 04/01 A2965 http://t.co/rrzH12gr
AWOS #KBOS 021054Z 35011G16KT 10SM OVC013 04/01 A2963 RMK AO2 SLP034 T00390011 $ http://t.co/rrzH12gr
AWOS #KBOS 021011Z 35009G18KT 10SM BKN011 BKN023 OVC044 04/02 A2962 http://t.co/rrzH12gr
AWOS #KBOS 020954Z 36013KT 10SM FEW011 BKN019 OVC044 04/02 A2961 RMK AO2 CIG 013 E SLP028 T00390017 $ http://t.co/rrzH12gr
AWOS #KBOS 020950Z 35011KT 10SM FEW011 BKN019 OVC024 04/02 A2961 http://t.co/rrzH12gr
AWOS #KBOS 020854Z 36011KT 10SM BKN013 OVC036 04/03 A2959 RMK AO2 SLP020 60001 T00440028 55003 $ http://t.co/rrzH12gr
AWOS #KBOS 020840Z 35010KT 10SM SCT010 OVC034 05/03 A2959 @K55Mawos
AWOS #KBOS 020754Z 36008KT 10SM BKN025 BKN035 OVC090 05/03 A2958 RMK AO2 RAE37 SLP016 P0000 T00500028 $ http://t.co/rrzH12gr
AWOS #KBOS 020732Z 36009KT 10SM -RA FEW010 BKN015 OVC023 05/03 A2958 http://t.co/rrzH12gr
AWOS #KBOS 020704Z 34007KT 10SM -RA BKN013 OVC020 06/04 A2958 RMK AO2 P0000 $ http://t.co/rrzH12gr
AWOS #KBOS 020634Z 32003KT 10SM -RA FEW006 SCT011 OVC021 06/04 A2959 http://t.co/rrzH12gr
AWOS #KBOS 020622Z 28003KT 4SM -RA BR SCT006 BKN010 OVC021 06/04 A2959 RMK AO2 P0001 $ http://t.co/rrzH12gr
AWOS #KBOS 020554Z 22005KT 6SM -RA BR BKN013 OVC020 05/04 A2960 RMK AO2 SLP023 P0004 60018 T00500039 10067 20050 56009 $
AWOS #KBOS 020549Z 21006KT 6SM -RA BR BKN013 OVC018 05/04 A2960 http://t.co/rrzH12gr
AWOS #KBOS 020508Z 21007KT 7SM -RA SCT012 OVC017 05/03 A2961 http://t.co/rrzH12gr
AWOS #KBOS 020501Z 21005KT 6SM -RA BR BKN012 OVC017 05/03 A2961 http://t.co/rrzH12gr
AWOS #KBOS 020454Z 21007KT 5SM RA BR BKN009 OVC015 05/03 A2962 RMK AO2 SLP028 P0005 T00500033 401060011 $ http://t.co/rrzH12gr
AWOS #KBOS 020354Z 21007KT 6SM -RA BR BKN009 OVC013 06/04 A2963 RMK AO2 SLP032 P0003 T00560039 $ http://t.co/rrzH12gr
AWOS #KBOS 020312Z 20006KT 5SM -RA BR BKN009 OVC017 06/04 A2964 http://t.co/rrzH12gr
AWOS #KBOS 020254Z 19006KT 5SM -RA BR FEW011 BKN016 OVC022 06/04 A2965 RMK AO2 SLP039 P0004 60006 T00560039 58010 $ @KMNHawos
AWOS #KBOS 020211Z 20010KT 6SM -RA BR FEW010 SCT015 OVC022 05/04 A2966 http://t.co/rrzH12gr
AWOS #KBOS 020154Z 19009KT 4SM -RA BR FEW010 BKN014 OVC022 05/04 A2967 RMK AO2 SLP045 P0002 T00500039 $ http://t.co/rrzH12gr
AWOS #KBOS 020144Z 20007KT 4SM -RA BR BKN010 OVC017 06/03 A2967 @K20Vawos
AWOS #KBOS 020054Z 19010KT 7SM -RA FEW013 BKN022 OVC028 06/04 A2968 RMK AO2 SLP048 P0000 T00560039 $ @KCCUawos
AWOS #KBOS 012354Z 22009KT 7SM -RA BKN023 OVC034 07/03 A2968 RMK AO2 SLP049 P0004 60005 T00670033 10100 20067 58000 $ http://t.co/rrzH12gr
AWOS #KBOS 012254Z 24008KT 7SM -RA BKN026 OVC034 07/03 A2968 RMK AO2 SLP051 P0001 T00720028 $ http://t.co/rrzH12gr
AWOS #KBOS 012238Z 23012KT 7SM -RA BKN025 OVC036 07/03 A2968 http://t.co/rrzH12gr
AWOS #KBOS 012154Z 25012G18KT 7SM -RA BKN041 OVC050 08/02 A2968 RMK AO2 RAB34 SLP050 P0000 T00830017 $ http://t.co/rrzH12gr
AWOS #KBOS 012054Z 12013KT 10SM OVC050 08/01 A2968 RMK AO2 SLP049 T00780011 56023 $ @KALSawos
AWOS #KBOS 011954Z 12011KT 10SM OVC055 08/M01 A2970 RMK AO2 SLP056 T00831006 $ http://t.co/rrzH12gr
AWOS #KBOS 011854Z 12012KT 10SM BKN050 OVC060 08/M01 A2972 RMK AO2 SLP065 T00781006 $ http://t.co/rrzH12gr
AWOS #KBOS 011754Z 12010KT 10SM BKN060 BKN240 BKN300 08/M01 A2975 RMK AO2 SLP072 T00831006 10106 20044 56026 $ http://t.co/rrzH12gr
AWOS #KBOS 011654Z 11011KT 10SM FEW022 BKN055 BKN240 BKN300 08/01 A2977 RMK AO2 SLP079 T00830011 $ http://t.co/rrzH12gr
AWOS #KBOS 011554Z 13006KT 10SM FEW050 SCT220 BKN300 09/01 A2980 RMK AO2 SLP089 T00940006 $ http://t.co/rrzH12gr
AWOS #KBOS 011454Z 14007KT 10SM FEW055 SCT210 SCT240 BKN300 09/01 A2982 @KAEJawos
AWOS #KBOS 011354Z 00000KT 10SM FEW022 SCT065 SCT250 BKN300 07/01 A2985 RMK AO2 SLP107 T00720006 $ @KEIKawos
AWOS #KBOS 011254Z 25003KT 10SM FEW019 SCT050 SCT250 BKN300 06/01 A2986 RMK AO2 SLP111 T00560006 $ http://t.co/rrzH12gr
AWOS #KBOS 011154Z 28007KT 10SM FEW060 SCT250 SCT300 04/01 A2987 RMK AO2 SLP114 70002 T00440006 10044 20011 51000 $ http://t.co/rrzH12gr
AWOS #KBOS 011054Z 00000KT 10SM FEW060 SCT250 02/M01 A2987 RMK AO2 SLP113 T00221011 $ http://t.co/rrzH12gr
AWOS #KBOS 010954Z 00000KT 10SM CLR 03/M01 A2987 RMK AO2 SLP115 T00331006 $ http://t.co/rrzH12gr
AWOS #KBOS 010854Z 24003KT 10SM CLR 03/M01 A2987 RMK AO2 SLP114 T00281011 55005 $ @KEIKawos
AWOS #KBOS 010754Z 25003KT 10SM CLR 02/M01 A2986 RMK AO2 SLP111 T00171011 $ http://t.co/rrzH12gr
AWOS #KBOS 010654Z 00000KT 10SM CLR 02/M01 A2987 http://t.co/rrzH12gr
AWOS #KBOS 010554Z 00000KT 10SM CLR 03/M01 A2988 RMK AO2 SLP119 T00281006 10044 20022 58007 $ http://t.co/rrzH12gr
AWOS #KBOS 010454Z 23004KT 10SM CLR 03/M01 A2990 RMK AO2 SLP123 T00281011 400610028 $ http://t.co/rrzH12gr
AWOS #KBOS 010354Z 22004KT 10SM CLR 03/M01 A2990 RMK AO2 SLP123 T00281011 $ http://t.co/rrzH12gr
AWOS #KBOS 010254Z 23003KT 10SM CLR 03/M01 A2991 RMK AO2 SLP126 T00331006 58002 $ @KALSawos
AWOS #KBOS 010154Z 17004KT 10SM CLR 03/M01 A2991 RMK AO2 SLP128 T00331011 $ http://t.co/rrzH12gr
AWOS #KBOS 010054Z 10004KT 10SM CLR 03/M01 A2991 RMK AO2 SLP128 T00331011 $ http://t.co/rrzH12gr
AWOS #KBOS 312354Z 10003KT 10SM FEW043 04/M01 A2991 RMK AO2 SLP128 T00391011 10061 20033 50001 $ @KANKawos
AWOS #KBOS 312254Z 09005KT 10SM FEW025 SCT035 SCT250 04/M01 A2992 RMK AO2 SLP129 T00441006 $ @KANKawos
AWOS #KBOS 312154Z 10008KT 10SM FEW020 SCT035 SCT250 06/00 A2991 RMK AO2 SLP128 T00560000 $ http://t.co/rrzH12gr
AWOS #KBOS 312054Z 09009KT 10SM FEW020 SCT035 06/00 A2991 RMK AO2 SLP127 T00610000 56011 $ http://t.co/rrzH12gr
AWOS #KBOS 311954Z 08011KT 10SM FEW025 BKN035 BKN060 06/01 A2991 RMK AO2 SLP129 T00560006 $ @KFNLawos
AWOS #KBOS 311854Z 07012KT 10SM FEW020 SCT025 OVC035 06/01 A2993 RMK AO2 SLP134 T00560011 $ http://t.co/rrzH12gr
AWOS #KBOS 311845Z 08012KT 10SM FEW020 SCT025 OVC035 06/01 A2993 @KEIKawos
AWOS #KBOS 311754Z 07011KT 7SM SCT012 BKN015 OVC022 05/02 A2994 http://t.co/rrzH12gr
AWOS #KBOS 311654Z 06009KT 9SM -RA SCT016 OVC022 04/02 A2997 RMK AO2 RAE26B42 SLP146 P0000 T00440017 $ @KEIKawos
AWOS #KBOS 311554Z 06008KT 10SM -RA FEW012 OVC018 05/02 A2998 http://t.co/rrzH12gr
AWOS #KBOS 311454Z 05006KT 10SM FEW012 BKN017 OVC023 04/01 A3000 @KEIKawos
AWOS #KBOS 311354Z 09007KT 7SM -RA BKN018 OVC024 04/01 A3000 RMK AO2 RAE29B46 SLP158 P0000 T00390011 $ http://t.co/rrzH12gr
AWOS #KBOS 311254Z 08006KT 6SM -RA BR SCT015 OVC020 04/01 A2999 RMK AO2 SLP156 CIG 015 SW P0002 T00390011 $ http://t.co/rrzH12gr
AWOS #KBOS 311154Z 11007KT 6SM -RA BR SCT015 BKN024 OVC028 04/00 A3000 RMK AO2 RAB22 SLP157 60001 70001 P0001 T00390000 10056 20039 55001 $
AWOS #KBOS 311116Z 09006KT 10SM SCT015 BKN028 OVC050 05/M01 A2999 http://t.co/rrzH12gr
AWOS #KBOS 311054Z 09008KT 10SM SCT031 BKN049 OVC055 05/M01 A2999 http://t.co/rrzH12gr
AWOS #KBOS 310954Z 09005KT 10SM FEW037 OVC050 05/M02 A2999 RMK AO2 CIG 041 E SLP155 T00501017 http://t.co/rrzH12gr
AWOS #KBOS 310854Z 10003KT 10SM FEW044 BKN065 OVC090 04/M01 A3000 http://t.co/rrzH12gr
AWOS #KBOS 310754Z 00000KT 10SM FEW050 OVC065 04/M02 A3001 RMK AO2 RAB11E28 SLP160 P0000 T00441017 @KPSOawos
AWOS #KBOS 310654Z 00000KT 10SM OVC060 06/M04 A3004 http://t.co/rrzH12gr
AWOS #KBOS 310554Z 04005KT 10SM OVC065 06/M04 A3006 RMK AO2 SLP177 T00561039 10056 20050 53005 http://t.co/rrzH12gr
AWOS #KBOS 310454Z 14004KT 10SM BKN060 OVC075 06/M03 A3005 RMK AO2 SLP176 T00561033 401060022 http://t.co/rrzH12gr
AWOS #KBOS 310354Z 00000KT 10SM BKN080 OVC100 06/M05 A3004 RMK AO2 SLP171 T00561050 @KEIKawos
AWOS #KBOS 310254Z VRB03KT 10SM OVC095 06/M05 A3004 RMK AO2 SLP171 T00561050 51009 @KALSawos
AWOS #KBOS 310154Z 15006KT 10SM BKN110 OVC220 06/M04 A3003 RMK AO2 SLP168 T00561039 @KPSOawos
AWOS #KBOS 310054Z 17006KT 10SM FEW300 06/M04 A3004 RMK AO2 SLP171 T00561044 http://t.co/rrzH12gr
AWOS #KBOS 302354Z 14011KT 10SM FEW300 06/M03 A3001 RMK AO2 SLP163 T00561033 10106 20050 53016 http://t.co/rrzH12gr
AWOS #KBOS 302254Z 10010KT 10SM FEW085 SCT300 06/M06 A3000 RMK AO2 SLP157 T00561056 http://t.co/rrzH12gr
AWOS #KBOS 302154Z 35006KT 10SM FEW085 SCT300 10/M14 A2998 http://t.co/rrzH12gr
AWOS #KBOS 302054Z 31013G17KT 10SM FEW085 SCT300 10/M14 A2997 RMK AO2 SLP147 T01001139 55005 http://t.co/rrzH12gr
AWOS #KBOS 301954Z 33013G21KT 10SM FEW075 SCT300 10/M14 A2997 RMK AO2 SLP147 T01001144 http://t.co/rrzH12gr
AWOS #KBOS 301754Z 30013G20KT 10SM FEW045 SCT300 09/M13 A2998 http://t.co/rrzH12gr
AWOS #KBOS 301654Z 33011KT 10SM FEW045 SCT300 09/M11 A2999 RMK AO2 PK WND 32027/1632 SLP156 T00891111 http://t.co/rrzH12gr
AWOS #KBOS 301554Z 31011G23KT 10SM FEW045 07/M11 A3001 RMK AO2 SLP161 T00721106 VISNO E $ @KCCUawos
AWOS #KBOS 301454Z 30013G24KT 10SM FEW045 06/M09 A3002 RMK AO2 SLP164 T00611089 51012 @K55Mawos
AWOS #KBOS 301354Z 31017G23KT 10SM FEW045 05/M08 A3000 RMK AO2 SLP159 T00501083 PNO $ http://t.co/rrzH12gr
AWOS #KBOS 301254Z 29013KT 10SM FEW044 SCT050 04/M07 A3000 RMK AO2 SLP158 T00441067 http://t.co/rrzH12gr
AWOS #KBOS 301154Z 31009KT 10SM FEW049 04/M07 A2998 RMK AO2 SLP152 T00391067 10039 20022 51011 http://t.co/rrzH12gr
AWOS #KBOS 301054Z 32013G17KT 10SM FEW045 BKN055 03/M07 A2998 http://t.co/rrzH12gr
AWOS #KBOS 300954Z 32010G18KT 10SM FEW060 03/M06 A2996 RMK AO2 SLP144 T00281061 $ http://t.co/rrzH12gr
AWOS #KBOS 300854Z 32008KT 10SM FEW050 03/M05 A2995 RMK AO2 SLP141 T00281050 51006 $ http://t.co/rrzH12gr
AWOS #KBOS 300754Z 31010KT 10SM BKN060 03/M04 A2995 RMK AO2 SLP140 T00331044 $ http://t.co/rrzH12gr
AWOS #KBOS 300654Z 31012G18KT 10SM CLR 03/M04 A2994 @K20Vawos
AWOS #KBOS 300554Z 31010KT 10SM SCT065 04/M04 A2993 RMK AO2 SLP135 T00391044 10061 20039 51011 $ @K20Vawos
AWOS #KBOS 300454Z 32012G21KT 10SM SCT070 04/M04 A2993 RMK AO2 SLP133 T00441044 400780044 $ @K4BMawos
AWOS #KBOS 300254Z 32014G18KT 10SM OVC049 06/M04 A2990 RMK AO2 SLP124 T00561039 51009 $ @KCCUawos
AWOS #KBOS 300154Z 32011G19KT 10SM FEW070 05/M03 A2990 RMK AO2 SLP123 T00501033 $ http://t.co/rrzH12gr
AWOS #KBOS 300054Z 32011G17KT 10SM FEW032 SCT070 06/M04 A2990 RMK AO2 SLP123 T00561039 $ http://t.co/rrzH12gr
AWOS #KBOS 292354Z 32012G19KT 10SM FEW033 BKN047 OVC070 06/M03 A2987 RMK AO2 SLP115 T00611033 10078 20056 52029 $ http://t.co/rrzH12gr
AWOS #KBOS 292254Z 33015KT 10SM FEW030 OVC049 07/M03 A2984 RMK AO2 SLP105 T00671033 http://t.co/rrzH12gr
AWOS #KBOS 292154Z 33014G19KT 10SM FEW027 OVC045 08/M02 A2981 RMK AO2 SLP094 T00781022 http://t.co/rrzH12gr
AWOS #KBOS 292054Z 07007KT 10SM FEW027 OVC045 06/02 A2979 RMK AO2 SLP085 T00560017 53004 http://t.co/rrzH12gr
AWOS #KBOS 291954Z 02005KT 10SM SCT029 BKN038 OVC046 07/01 A2977 RMK AO2 CIG 029 E SLP081 T00670011 http://t.co/rrzH12gr
AWOS #KBOS 291854Z 02008KT 10SM FEW019 BKN026 OVC037 07/01 A2977 RMK AO2 SLP081 T00670006 @KANKawos
AWOS #KBOS 291841Z 02007KT 10SM FEW019 BKN026 OVC037 07/01 A2977 http://t.co/rrzH12gr
AWOS #KBOS 291811Z 01010KT 10SM FEW020 SCT027 OVC037 06/01 A2977 http://t.co/rrzH12gr
AWOS #KBOS 291754Z 02008KT 10SM FEW016 BKN027 OVC060 06/01 A2977 RMK AO2 SLP081 T00560011 10072 20050 51016 http://t.co/rrzH12gr
AWOS #KBOS 291654Z 01008KT 10SM BKN027 OVC060 06/02 A2976 RMK AO2 SLP077 T00560017 http://t.co/rrzH12gr
AWOS #KBOS 291554Z 01012KT 10SM SCT015 OVC027 05/02 A2974 RMK AO2 SLP071 T00500017 @KPSOawos
AWOS #KBOS 291454Z 03013KT 10SM SCT015 OVC023 06/02 A2972 http://t.co/rrzH12gr
AWOS #KBOS 291354Z 36014G20KT 10SM OVC028 06/02 A2970 RMK AO2 SLP055 T00610017 http://t.co/rrzH12gr
AWOS #KBOS 291254Z 02011KT 10SM OVC024 06/03 A2966 RMK AO2 SLP044 T00610028 http://t.co/rrzH12gr
AWOS #KBOS 291219Z 35009KT 10SM OVC028 07/02 A2965 http://t.co/rrzH12gr
AWOS #KBOS 291154Z 34013G17KT 10SM BKN033 BKN049 07/02 A2964 RMK AO2 SLP036 60001 70007 T00670022 10067 20056 53029 http://t.co/rrzH12gr
AWOS #KBOS 290954Z 35010KT 10SM OVC032 06/03 A2958 http://t.co/rrzH12gr
AWOS #KBOS 290901Z 34006KT 10SM OVC030 06/03 A2956 http://t.co/rrzH12gr
AWOS #KBOS 290854Z 36008KT 10SM BKN027 OVC034 06/03 A2956 RMK AO2 RAE48 SLP008 P0001 60001 T00610028 53005 http://t.co/rrzH12gr
AWOS #KBOS 290834Z 34006KT 10SM -RA OVC028 06/03 A2955 RMK AO2 P0001 http://t.co/rrzH12gr
AWOS #KBOS 290754Z 35006KT 10SM -RA OVC044 06/03 A2954 RMK AO2 RAB0656 SLP004 P0000 T00610033 http://t.co/rrzH12gr
AWOS #KBOS 290654Z 36005KT 10SM SCT050 OVC080 07/04 A2954 RMK AO2 RAB27E54 SLP002 P0000 T00670044 http://t.co/rrzH12gr
AWOS #KBOS 290554Z 02006KT 10SM BKN080 OVC100 07/05 A2954 http://t.co/rrzH12gr
AWOS #KBOS 290454Z 07006KT 9SM -RA BKN080 OVC100 07/06 A2954 RMK AO2 RAE31B48 SLP001 P0000 T00720056 401000039 http://t.co/rrzH12gr
AWOS #KBOS 290354Z 00000KT 10SM -RA OVC075 10/07 A2955 RMK AO2 RAB11 SLP005 P0001 T01000067 http://t.co/rrzH12gr
AWOS #KBOS 290254Z 26004KT 10SM BKN080 OVC100 10/06 A2956 RMK AO2 SLP008 60000 T01000061 58012 http://t.co/rrzH12gr
AWOS #KBOS 290154Z 22005KT 10SM FEW040 BKN075 OVC100 09/06 A2957 RMK AO2 RAB0055E06 SLP013 P0000 T00940061 http://t.co/rrzH12gr
AWOS #KBOS 290054Z 19004KT 10SM FEW035 SCT070 OVC110 09/06 A2958 RMK AO2 RAE01 SLP015 P0000 T00890061 http://t.co/rrzH12gr
AWOS #KBOS 282354Z 20004KT 10SM -RA FEW035 BKN080 OVC100 10/06 A2959 RMK AO2 RAB19 SLP019 P0000 60000 T01000061 10100 20089 55002 @KAEJawos
AWOS #KBOS 282254Z 23007KT 10SM SCT022 BKN035 OVC110 10/06 A2958 RMK AO2 SLP015 T01000056 http://t.co/rrzH12gr
AWOS #KBOS 282237Z 22005KT 10SM SCT022 BKN035 OVC110 09/06 A2958 http://t.co/rrzH12gr
AWOS #KBOS 282154Z 21007KT 10SM BKN022 OVC035 10/05 A2957 RMK AO2 SLP012 T01000050 http://t.co/rrzH12gr
AWOS #KBOS 282054Z 20010KT 10SM BKN022 OVC035 09/05 A2960 RMK AO2 PRESFR SLP021 T00940050 56046 @K4BMawos
AWOS #KBOS 281954Z 20009KT 10SM BKN022 OVC034 09/05 A2963 RMK AO2 SLP033 T00940050 @KVTPawos
AWOS #KBOS 281906Z 20010KT 10SM FEW018 BKN023 OVC032 09/05 A2967 RMK AO2 http://t.co/rrzH12gr
AWOS #KBOS 281854Z 20012KT 10SM SCT021 SCT026 OVC035 09/05 A2968 RMK AO2 SLP050 T00890050 @KCPWawos
AWOS #KBOS 281844Z 20013KT 10SM SCT021 SCT026 OVC033 09/05 A2969 RMK AO2 http://t.co/rrzH12gr
AWOS #KBOS 281754Z 21013G23KT 10SM BKN027 BKN065 OVC100 10/04 A2973 RMK AO2 SLP068 60005 T01000044 10100 20044 58044 @K3MWawos
AWOS #KBOS 281722Z 20012KT 10SM BKN029 BKN070 BKN095 09/04 A2975 RMK AO2 http://t.co/rrzH12gr
AWOS #KBOS 281654Z 19012KT 10SM FEW036 BKN080 BKN200 10/05 A2977 RMK AO2 RAB03E38 SLP081 P0005 T01000050 http://t.co/rrzH12gr
AWOS #KBOS 281554Z 23005KT 10SM OVC075 08/M03 A2988 RMK AO2 RAB15E25 PRESRR SLP116 P0000 T00781033 http://t.co/rrzH12gr
AWOS #KBOS 281454Z 16010KT 10SM OVC080 07/M05 A2986 RMK AO2 SLP112 60000 T00671050 58055 http://t.co/rrzH12gr
AWOS #KBOS 281354Z 16011KT 10SM OVC070 05/M08 A2993 RMK AO2 RAB30E42 SLP136 P0000 T00501078 http://t.co/rrzH12gr
AWOS #KBOS 281254Z 15012KT 10SM OVC075 04/M09 A2998 RMK AO2 SLP151 T00441089 http://t.co/rrzH12gr
AWOS #KBOS 281154Z 16009KT 10SM OVC080 04/M09 A3002 RMK AO2 SLP166 T00441094 10044 20039 56024 @K04Vawos
AWOS #KBOS 281054Z 15009KT 10SM BKN090 04/M07 A3004 RMK AO2 PRESFR SLP172 T00391072 @KMYPawos
AWOS #KBOS 280954Z 09006KT 10SM OVC090 04/M09 A3007 RMK AO2 SLP183 T00391089 @KVTPawos
AWOS #KBOS 280854Z 05005KT 10SM BKN080 OVC120 04/M13 A3010 RMK AO2 SLP191 T00441133 56006 @K4BMawos
AWOS #KBOS 280754Z 00000KT 10SM BKN075 OVC090 04/M14 A3010 RMK AO2 SLP191 T00391144 @KCCUawos
AWOS #KBOS 280654Z 00000KT 10SM OVC100 04/M17 A3008 RMK AO2 SLP185 T00441172 http://t.co/rrzH12gr
AWOS #KBOS 280554Z 31004KT 10SM FEW120 04/M18 A3012 http://t.co/rrzH12gr
AWOS #KBOS 280454Z 30006KT 10SM CLR 04/M18 A3015 RMK AO2 SLP208 T00441178 400941028 http://t.co/rrzH12gr
AWOS #KBOS 280354Z 00000KT 10SM CLR 04/M19 A3016 RMK AO2 SLP213 T00441189 http://t.co/rrzH12gr
AWOS #KBOS 280254Z 30007KT 10SM CLR 04/M18 A3017 RMK AO2 SLP214 T00441178 50001 http://t.co/rrzH12gr
AWOS #KBOS 280154Z 32010KT 10SM CLR 06/M19 A3018 RMK AO2 SLP217 T00561194 http://t.co/rrzH12gr
AWOS #KBOS 280054Z 33008KT 10SM CLR 06/M20 A3018 RMK AO2 SLP218 T00611200 @KMYPawos
AWOS #KBOS 272354Z 33010KT 10SM FEW220 07/M21 A3016 RMK AO2 SLP213 T00671206 10094 20067 53018 http://t.co/rrzH12gr
AWOS #KBOS 272254Z 31011KT 10SM FEW220 08/M22 A3014 RMK AO2 SLP206 T00781217 @KEIKawos
AWOS #KBOS 272154Z 31009KT 10SM FEW220 08/M21 A3013 RMK AO2 SLP200 T00831206 http://t.co/rrzH12gr
AWOS #KBOS 272054Z 35015G21KT 10SM FEW220 09/M22 A3011 RMK AO2 SLP196 T00891217 55006 http://t.co/rrzH12gr
AWOS #KBOS 271954Z 36014G19KT 10SM FEW220 09/M22 A3011 RMK AO2 SLP194 T00891217 http://t.co/rrzH12gr
AWOS #KBOS 271854Z 34015G22KT 10SM FEW220 08/M20 A3011 RMK AO2 PK WND 01027/1827 SLP195 T00781200 @KALSawos
AWOS #KBOS 271754Z 31015G23KT 10SM FEW220 06/M20 A3013 http://t.co/rrzH12gr
AWOS #KBOS 271654Z 33014G26KT 10SM CLR 04/M21 A3014 RMK AO2 PK WND 34026/1649 SLP206 T00441206 http://t.co/rrzH12gr
AWOS #KBOS 271554Z 31014G23KT 10SM CLR 04/M19 A3015 RMK AO2 PK WND 32029/1532 SLP208 T00391189 http://t.co/rrzH12gr
AWOS #KBOS 271454Z 32019G27KT 10SM CLR 02/M19 A3014 RMK AO2 PK WND 33028/1426 SLP206 FEW CU DSNT E T00171194 51014 @KPSOawos
AWOS #KBOS 271354Z 31014G25KT 10SM CLR 00/M18 A3013 RMK AO2 PK WND 31026/1340 SLP202 FEW CU DSNT E T00001183 http://t.co/rrzH12gr
AWOS #KBOS 271254Z 31013G27KT 10SM CLR M01/M18 A3012 RMK AO2 PK WND 32029/1239 SLP198 T10111183 http://t.co/rrzH12gr
AWOS #KBOS 271154Z 33016G29KT 10SM CLR M02/M19 A3010 RMK AO2 PK WND 33032/1138 SLP192 T10221189 11006 21028 51021 http://t.co/rrzH12gr
AWOS #KBOS 271054Z 31017G24KT 10SM CLR M03/M18 A3009 RMK AO2 SLP188 T10281183 http://t.co/rrzH12gr
AWOS #KBOS 270954Z 33017G24KT 10SM CLR M03/M18 A3007 RMK AO2 PK WND 33029/0928 SLP182 T10281183 http://t.co/rrzH12gr
AWOS #KBOS 270854Z 32020G29KT 10SM CLR M02/M19 A3004 RMK AO2 PK WND 32029/0853 SLP171 T10221189 53012 http://t.co/rrzH12gr
AWOS #KBOS 270754Z 33013G24KT 10SM CLR M02/M19 A3002 RMK AO2 PK WND 33027/0736 SLP165 T10171189 @KANKawos
AWOS #KBOS 270654Z 34015G29KT 10SM CLR M01/M19 A3001 RMK AO2 PK WND 33029/0647 SLP162 T10111189 http://t.co/rrzH12gr
AWOS #KBOS 270554Z 33012G18KT 10SM FEW060 M01/M17 A3000 RMK AO2 SLP159 T10061172 10011 21006 53015 @KPSOawos
AWOS #KBOS 270454Z 33014G24KT 10SM FEW060 00/M16 A2999 RMK AO2 PK WND 35026/0433 SLP153 T00001161 401000000 http://t.co/rrzH12gr
AWOS #KBOS 270354Z 32019G26KT 10SM FEW060 01/M16 A2997 RMK AO2 PK WND 31028/0343 SLP146 T00061156 http://t.co/rrzH12gr
AWOS #KBOS 270254Z 31017G24KT 10SM FEW060 01/M14 A2996 RMK AO2 PK WND 33027/0218 SLP144 T00061144 50014 http://t.co/rrzH12gr
AWOS #KBOS 270154Z 32015G23KT 10SM FEW060 01/M14 A2996 RMK AO2 PK WND 33028/0101 SLP145 T00061139 http://t.co/rrzH12gr
AWOS #KBOS 270054Z 32015G24KT 10SM FEW060 01/M14 A2995 RMK AO2 PK WND 35031/0019 SLP140 T00061139 http://t.co/rrzH12gr
AWOS #KBOS 262354Z 33021G31KT 10SM FEW055 01/M13 A2992 @KANKawos
AWOS #KBOS 262254Z 33020G28KT 10SM FEW065 02/M13 A2988 RMK AO2 PK WND 33036/2220 SLP119 T00171133 http://t.co/rrzH12gr
AWOS #KBOS 262154Z 32022G35KT 10SM FEW065 03/M13 A2984 RMK AO2 PK WND 32037/2119 SLP104 T00331128 http://t.co/rrzH12gr
AWOS #KBOS 262054Z 33018G30KT 10SM FEW055 05/M12 A2979 RMK AO2 PK WND 33034/2031 SLP088 T00501117 53018 http://t.co/rrzH12gr
AWOS #KBOS 261954Z 32019G34KT 10SM FEW055 06/M12 A2977 RMK AO2 PK WND 34036/1941 SLP079 T00611117 http://t.co/rrzH12gr
AWOS #KBOS 261854Z 32020G30KT 10SM FEW055 07/M11 A2975 RMK AO2 PK WND 30035/1800 SLP074 T00721106 http://t.co/rrzH12gr
AWOS #KBOS 261754Z 32021G31KT 10SM FEW055 07/M09 A2974 http://t.co/rrzH12gr
AWOS #KBOS 261654Z 32023G29KT 10SM FEW045 07/M08 A2974 RMK AO2 PK WND 30033/1623 SLP069 T00721078 http://t.co/rrzH12gr
AWOS #KBOS 261554Z 32013G24KT 10SM FEW040 SCT090 08/M06 A2973 RMK AO2 PK WND 34032/1516 SLP068 T00781061 http://t.co/rrzH12gr
AWOS #KBOS 261454Z 33023G30KT 10SM FEW035 SCT080 07/M02 A2973 RMK AO2 PK WND 32033/1443 SLP067 60000 T00721017 51037 http://t.co/rrzH12gr
AWOS #KBOS 261354Z 34018G25KT 10SM BKN041 BKN060 BKN080 08/01 A2970 RMK AO2 PK WND 33028/1256 RAB07E16 SLP057 P0000 T00830006
AWOS #KBOS 261324Z 33013G23KT 10SM SCT029 BKN043 OVC075 08/02 A2970 RMK AO2 PK WND 33028/1256 RAB07E16 P0000 http://t.co/rrzH12gr
AWOS #KBOS 261254Z 33020G30KT 10SM OVC029 08/02 A2968 RMK AO2 PK WND 35034/1241 RAB17E26 SLP050 P0000 T00830022 http://t.co/rrzH12gr
AWOS #KBOS 261229Z 33020G27KT 10SM FEW019 BKN025 OVC065 08/04 A2966 http://t.co/rrzH12gr
AWOS #KBOS 261154Z 28009G15KT 10SM SCT043 BKN050 10/06 A2962 RMK AO2 SLP031 70001 T01000056 10100 20050 56004 http://t.co/rrzH12gr
AWOS #KBOS 261054Z 26005KT 10SM OVC046 07/04 A2963 RMK AO2 SLP032 T00670044 http://t.co/rrzH12gr
AWOS #KBOS 260954Z 22004KT 10SM FEW040 05/03 A2962 http://t.co/rrzH12gr
AWOS #KBOS 260854Z 24004KT 10SM FEW040 06/03 A2963 RMK AO2 SLP034 T00560033 56018 http://t.co/rrzH12gr
AWOS #KBOS 260754Z 21005KT 10SM FEW040 05/03 A2964 RMK AO2 SLP036 T00500028 http://t.co/rrzH12gr
AWOS #KBOS 260654Z 32005KT 10SM FEW039 06/03 A2966 RMK AO2 SLP044 T00610033 @KMNHawos
AWOS #KBOS 260554Z 31005KT 10SM SCT008 OVC037 06/04 A2969 http://t.co/rrzH12gr
AWOS #KBOS 260541Z 33006KT 10SM SCT008 OVC039 06/04 A2969 http://t.co/rrzH12gr
AWOS #KBOS 260454Z 35008KT 10SM OVC008 07/04 A2971 RMK AO2 SLP059 T00670039 400890056 http://t.co/rrzH12gr
AWOS #KBOS 260354Z 35005KT 9SM OVC008 07/04 A2972 RMK AO2 SLP063 T00670044 http://t.co/rrzH12gr
AWOS #KBOS 260254Z 00000KT 10SM OVC008 06/04 A2973 RMK AO2 SLP067 T00610039 58016 http://t.co/rrzH12gr
AWOS #KBOS 260201Z 00000KT 10SM OVC008 06/04 A2976 http://t.co/rrzH12gr
AWOS #KBOS 260154Z 03003KT 10SM OVC010 06/04 A2977 RMK AO2 SLP079 T00610044 http://t.co/rrzH12gr
AWOS #KBOS 260054Z 02005KT 10SM OVC010 06/04 A2979 RMK AO2 SLP085 T00610039 http://t.co/rrzH12gr
AWOS #KBOS 252354Z 09005KT 10SM FEW007 OVC010 06/04 A2978 RMK AO2 SLP084 60001 T00560039 10083 20056 58011 http://t.co/rrzH12gr
AWOS #KBOS 252254Z 09006KT 7SM FEW007 OVC010 06/04 A2980 RMK AO2 SLP091 T00560039 http://t.co/rrzH12gr
AWOS #KBOS 252233Z 09006KT 7SM SCT007 OVC010 06/04 A2981 RMK AO2 http://t.co/rrzH12gr
AWOS #KBOS 252154Z 08007KT 5SM BR BKN007 BKN014 OVC029 06/04 A2980 RMK AO2 RAB21E39 SLP089 P0001 T00610044 http://t.co/rrzH12gr
AWOS #KBOS 252128Z 09007KT 2 1/2SM -RA BR BKN007 BKN014 OVC029 06/04 A2980 http://t.co/rrzH12gr
AWOS #KBOS 252054Z 07008KT 3SM BR BKN007 OVC015 06/04 A2981 RMK AO2 RAB27E41 SLP094 P0000 60000 T00610044 56020 http://t.co/rrzH12gr
AWOS #KBOS 252002Z 09009KT 7SM FEW006 BKN015 OVC024 07/04 A2982 http://t.co/rrzH12gr
AWOS #KBOS 251954Z 09008KT 5SM BR SCT013 OVC025 06/04 A2983 RMK AO2 RAB00E51 SLP100 P0000 T00610044 http://t.co/rrzH12gr
AWOS #KBOS 251933Z 09009KT 3SM -RA BR SCT012 OVC028 07/04 A2983 RMK AO2 RAB00 P0000 http://t.co/rrzH12gr
AWOS #KBOS 251925Z 09009KT 2 1/2SM -RA BR FEW013 OVC028 07/04 A2984 RMK AO2 RAB00 P0000 http://t.co/rrzH12gr
AWOS #KBOS 251854Z 08010KT 10SM FEW022 OVC028 08/03 A2985 RMK AO2 SLP106 T00780033 http://t.co/rrzH12gr
AWOS #KBOS 251754Z 07009KT 10SM OVC028 08/03 A2987 RMK AO2 SLP114 60000 T00780033 10078 20072 58016 http://t.co/rrzH12gr
AWOS #KBOS 251654Z 07008KT 10SM OVC028 08/03 A2989 RMK AO2 SLP121 T00780033 http://t.co/rrzH12gr
AWOS #KBOS 251628Z 09009KT 10SM OVC028 08/02 A2990 http://t.co/rrzH12gr
AWOS #KBOS 251554Z 09009KT 10SM OVC032 08/02 A2990 RMK AO2 SLP126 T00780022 http://t.co/rrzH12gr
AWOS #KBOS 251454Z 09007KT 10SM OVC038 08/03 A2992 RMK AO2 SLP131 60000 T00780028 58014 http://t.co/rrzH12gr
AWOS #KBOS 251354Z 11007KT 10SM OVC046 08/03 A2994 RMK AO2 SLP137 T00780033 http://t.co/rrzH12gr
AWOS #KBOS 251254Z 10008KT 10SM OVC050 07/03 A2995 RMK AO2 RAE09 SLP140 P0000 T00720028 http://t.co/rrzH12gr
AWOS #KBOS 251154Z 10007KT 10SM -RA BKN055 OVC065 07/03 A2996 RMK AO2 SLP145 P0000 60000 T00720033 10089 20072 58005 http://t.co/rrzH12gr
AWOS #KBOS 251054Z 10005KT 10SM -RA SCT060 OVC080 07/02 A2997 RMK AO2 SLP146 P0000 T00720022 http://t.co/rrzH12gr
AWOS #KBOS 250954Z 12004KT 10SM -RA SCT070 OVC085 07/03 A2998 http://t.co/rrzH12gr
AWOS #KBOS 250854Z 00000KT 10SM -RA OVC100 08/03 A2998 RMK AO2 RAB27 SLP150 P0000 60000 T00780028 56019 http://t.co/rrzH12gr
AWOS #KBOS 250754Z 11005KT 10SM SCT080 OVC100 08/02 A2999 RMK AO2 RAB18E31 SLP153 P0000 T00780022 http://t.co/rrzH12gr
AWOS #KBOS 250654Z 16004KT 10SM FEW100 SCT110 OVC140 08/03 A3002 RMK AO2 RAB07E25 SLP164 P0000 T00830033 http://t.co/rrzH12gr
AWOS #KBOS 250554Z 16004KT 10SM SCT090 OVC140 08/03 A3003 RMK AO2 SLP169 60000 T00830033 10094 20083 58009 http://t.co/rrzH12gr
AWOS #KBOS 250454Z 19007KT 10SM BKN090 OVC110 09/03 A3004 RMK AO2 SLP172 T00890033 401500083 @KALSawos
AWOS #KBOS 250354Z 19007KT 10SM OVC085 09/03 A3005 RMK AO2 SLP176 T00890033 http://t.co/rrzH12gr
AWOS #KBOS 250254Z 19007KT 10SM BKN080 BKN110 09/02 A3006 RMK AO2 SLP179 60000 T00890022 58003 http://t.co/rrzH12gr
AWOS #KBOS 250154Z 16007KT 10SM SCT075 OVC080 08/02 A3007 RMK AO2 RAB00E15 SLP180 P0000 T00830022 http://t.co/rrzH12gr
AWOS #KBOS 250054Z 12007KT 10SM BKN095 OVC120 08/02 A3007 RMK AO2 SLP181 T00830017 @KPSOawos
AWOS #KBOS 242354Z 11010KT 10SM OVC095 08/02 A3007 RMK AO2 SLP182 T00830022 10094 20083 56005 @KAEJawos
AWOS #KBOS 242254Z 10009KT 10SM FEW085 OVC100 08/02 A3007 RMK AO2 SLP183 T00830017 http://t.co/rrzH12gr
AWOS #KBOS 242154Z 11009KT 10SM BKN085 OVC250 08/03 A3008 RMK AO2 SLP186 T00830028 http://t.co/rrzH12gr
AWOS #KBOS 242054Z 10010KT 10SM SCT090 BKN110 BKN150 OVC250 09/03 A3009 RMK AO2 SLP187 T00940028 56015 @K55Mawos
AWOS #KBOS 241954Z 11007KT 10SM FEW090 BKN110 BKN140 OVC250 08/01 A3010 RMK AO2 SLP191 T00830011 http://t.co/rrzH12gr
AWOS #KBOS 241854Z 08008KT 10SM FEW090 BKN110 BKN140 OVC250 08/01 A3011 RMK AO2 SLP195 T00830011 http://t.co/rrzH12gr
AWOS #KBOS 241754Z 11008KT 10SM BKN110 BKN140 OVC250 08/M01 A3013 http://t.co/rrzH12gr
AWOS #KBOS 241654Z 09007KT 10SM BKN110 OVC230 08/01 A3016 RMK AO2 SLP213 T00830006 http://t.co/rrzH12gr
AWOS #KBOS 241554Z 11008KT 10SM BKN110 OVC230 08/M01 A3018 RMK AO2 SLP217 T00831006 http://t.co/rrzH12gr
AWOS #KBOS 241454Z 09007KT 10SM BKN100 OVC230 08/01 A3018 RMK AO2 SLP220 T00830011 51013 http://t.co/rrzH12gr
AWOS #KBOS 241354Z 07009KT 10SM BKN110 OVC220 08/M02 A3017 RMK AO2 SLP217 T00831017 http://t.co/rrzH12gr
AWOS #KBOS 241254Z 10008KT 10SM SCT110 BKN130 OVC280 09/00 A3016 RMK AO2 SLP213 VIRGA NW T00890000 @K7BMawos
AWOS #KBOS 241154Z 07007KT 10SM BKN120 OVC280 09/02 A3015 RMK AO2 SLP208 T00890017 10144 20083 51015 http://t.co/rrzH12gr
AWOS #KBOS 241054Z 08005KT 10SM BKN120 BKN220 BKN280 09/01 A3014 RMK AO2 SLP207 T00890006 http://t.co/rrzH12gr
AWOS #KBOS 240954Z 10006KT 10SM SCT110 BKN250 08/02 A3013 RMK AO2 SLP201 T00830017 http://t.co/rrzH12gr
AWOS #KBOS 240854Z 07010KT 10SM BKN250 10/02 A3010 RMK AO2 SLP193 T01000017 53005 http://t.co/rrzH12gr
AWOS #KBOS 240754Z 09005KT 10SM BKN250 10/02 A3010 RMK AO2 SLP190 T01000022 @K4BMawos
AWOS #KBOS 240654Z 01005KT 10SM BKN250 13/M04 A3009 RMK AO2 SLP189 T01331039 http://t.co/rrzH12gr
AWOS #KBOS 240554Z 34005KT 10SM BKN250 14/M06 A3009 @KMNHawos
AWOS #KBOS 240454Z 36008KT 10SM BKN250 16/M06 A3007 RMK AO2 SLP183 T01561061 402440144 @KMNHawos
AWOS #KBOS 240354Z 35007KT 10SM FEW140 SCT250 16/M08 A3007 RMK AO2 SLP180 T01611078 http://t.co/rrzH12gr
AWOS #KBOS 240154Z 36006KT 10SM FEW140 SCT250 18/M06 A3003 RMK AO2 SLP169 T01781061 @KMNHawos
AWOS #KBOS 240054Z 35012G22KT 10SM FEW140 SCT250 19/M05 A3002 RMK AO2 SLP165 T01891050 http://t.co/rrzH12gr
AWOS #KBOS 232354Z 35013G18KT 10SM FEW140 SCT250 21/M03 A3000 RMK AO2 SLP157 T02061028 10244 20206 53008 http://t.co/rrzH12gr
AWOS #KBOS 232254Z 34010G18KT 10SM FEW060 SCT140 SCT250 22/M03 A2998 RMK AO2 SLP152 T02221028 http://t.co/rrzH12gr
AWOS #KBOS 232154Z 31009KT 10SM FEW050 SCT140 SCT250 23/00 A2997 RMK AO2 SLP148 T02330000 http://t.co/rrzH12gr
AWOS #KBOS 232054Z 32014G21KT 10SM FEW050 SCT140 SCT250 24/M01 A2997 RMK AO2 SLP149 T02391006 56022 http://t.co/rrzH12gr
AWOS #KBOS 231954Z 31008G17KT 10SM FEW040 SCT140 SCT250 24/00 A2999 RMK AO2 SLP154 T02390000 http://t.co/rrzH12gr
AWOS #KBOS 231854Z 29012G20KT 10SM FEW040 SCT140 SCT250 23/M01 A3001 RMK AO2 SLP161 T02331006 http://t.co/rrzH12gr
AWOS #KBOS 231754Z 27010KT 10SM FEW140 SCT250 23/00 A3004 RMK AO2 SLP171 T02280000 10233 20150 58028 @KALSawos
AWOS #KBOS 231654Z VRB03KT 10SM FEW140 SCT250 19/06 A3007 RMK AO2 SLP181 T01890056 http://t.co/rrzH12gr
AWOS #KBOS 231554Z 16007KT 10SM FEW110 SCT180 17/06 A3010 RMK AO2 SLP191 T01670061 http://t.co/rrzH12gr
AWOS #KBOS 231454Z 15007KT 10SM FEW110 SCT180 16/07 A3012 RMK AO2 SLP200 T01560067 50007 http://t.co/rrzH12gr
AWOS #KBOS 231354Z 13007KT 10SM FEW035 SCT110 16/07 A3012 RMK AO2 SLP200 T01610072 http://t.co/rrzH12gr
AWOS #KBOS 231254Z 05006KT 10SM SCT035 BKN110 16/06 A3012 RMK AO2 SLP197 T01610061 http://t.co/rrzH12gr
AWOS #KBOS 231154Z 00000KT 10SM BKN100 15/10 A3010 RMK AO2 SLP192 T01500100 10211 20144 51023 http://t.co/rrzH12gr
AWOS #KBOS 231054Z 00000KT 10SM BKN095 16/11 A3008 RMK AO2 SLP185 T01560106 http://t.co/rrzH12gr
AWOS #KBOS 230954Z 08005KT 10SM OVC100 16/10 A3006 RMK AO2 SLP180 T01560100 http://t.co/rrzH12gr
AWOS #KBOS 230854Z 34003KT 10SM SCT060 BKN095 20/11 A3003 RMK AO2 CIG 065 E SLP169 T02000111 53008 http://t.co/rrzH12gr
AWOS #KBOS 230754Z 32007KT 10SM BKN090 21/11 A3002 RMK AO2 SLP164 T02060111 http://t.co/rrzH12gr
AWOS #KBOS 230654Z 33007KT 10SM BKN130 21/11 A3001 RMK AO2 SLP162 T02110111 http://t.co/rrzH12gr
AWOS #KBOS 230554Z 31007KT 10SM CLR 21/11 A3001 RMK AO2 SLP161 T02060106 10250 20206 53003 @KAEJawos
AWOS #KBOS 230454Z 29007KT 10SM CLR 21/10 A2999 RMK AO2 SLP156 T02110100 402830133 http://t.co/rrzH12gr
AWOS #KBOS 230354Z 29007KT 10SM CLR 22/09 A2999 RMK AO2 SLP156 T02170094 http://t.co/rrzH12gr
AWOS #KBOS 230254Z 29010KT 10SM CLR 23/10 A3000 RMK AO2 SLP158 T02280100 53002 @KALSawos
AWOS #KBOS 230154Z 24011KT 10SM FEW250 22/11 A3000 RMK AO2 SLP157 T02170111 http://t.co/rrzH12gr
AWOS #KBOS 230054Z 22009KT 10SM FEW250 23/10 A2999 RMK AO2 SLP156 T02280100 http://t.co/rrzH12gr
AWOS #KBOS 222354Z 24008KT 10SM FEW060 SCT250 25/10 A2999 RMK AO2 SLP156 T02500100 10283 20250 53004 http://t.co/rrzH12gr
AWOS #KBOS 222254Z 25008KT 10SM FEW060 SCT220 26/11 A2998 RMK AO2 SLP153 T02610106 @KMNHawos
AWOS #KBOS 222154Z 26009KT 10SM FEW060 SCT220 27/10 A2998 RMK AO2 SLP151 T02720100 @KMNHawos
AWOS #KBOS 222054Z 28011KT 10SM FEW060 SCT220 28/10 A2998 RMK AO2 SLP151 T02780100 56025 http://t.co/rrzH12gr
AWOS #KBOS 221954Z 25009KT 10SM FEW060 SCT220 27/11 A3000 RMK AO2 SLP157 T02720111 @KMYPawos
AWOS #KBOS 221854Z 28008KT 10SM FEW055 27/11 A3002 RMK AO2 SLP166 T02720111 http://t.co/rrzH12gr
AWOS #KBOS 221754Z 27008KT 10SM FEW055 26/12 A3005 RMK AO2 SLP176 T02610117 10261 20150 58030 http://t.co/rrzH12gr
AWOS #KBOS 221654Z 28007KT 10SM CLR 24/12 A3008 RMK AO2 SLP186 T02440122 http://t.co/rrzH12gr
AWOS #KBOS 221554Z 27010KT 10SM CLR 23/13 A3012 RMK AO2 SLP197 T02280128 http://t.co/rrzH12gr
AWOS #KBOS 221454Z 26007KT 10SM CLR 21/13 A3014 RMK AO2 SLP206 T02110128 56013 http://t.co/rrzH12gr
AWOS #KBOS 221354Z 25007G15KT 10SM CLR 19/13 A3015 RMK AO2 SLP210 T01890128 http://t.co/rrzH12gr
AWOS #KBOS 221254Z 25012KT 10SM CLR 17/13 A3016 RMK AO2 SLP212 T01720128 http://t.co/rrzH12gr
AWOS #KBOS 221154Z 23008KT 8SM CLR 15/12 A3018 RMK AO2 SLP219 T01500122 10161 20133 58000 http://t.co/rrzH12gr
AWOS #KBOS 221054Z 23009KT 8SM FEW010 14/12 A3018 RMK AO2 SLP220 T01390122 http://t.co/rrzH12gr
AWOS #KBOS 220954Z 22008KT 10SM FEW010 14/12 A3019 RMK AO2 SLP221 T01390122 http://t.co/rrzH12gr
AWOS #KBOS 220854Z 24011KT 10SM CLR 15/13 A3018 RMK AO2 SLP219 T01500128 56010 http://t.co/rrzH12gr
AWOS #KBOS 220754Z 25008KT 10SM CLR 15/13 A3019 RMK AO2 SLP221 T01500128 http://t.co/rrzH12gr
AWOS #KBOS 220654Z 23009KT 10SM CLR 16/13 A3019 RMK AO2 SLP223 T01560128 http://t.co/rrzH12gr
AWOS #KBOS 220554Z 24008KT 10SM CLR 16/13 A3021 RMK AO2 SLP230 T01610133 10200 20161 56010 @K20Vawos
AWOS #KBOS 220454Z 24009KT 10SM CLR 17/13 A3022 RMK AO2 SLP232 T01670133 402560133 http://t.co/rrzH12gr
AWOS #KBOS 220354Z 23009KT 10SM CLR 17/13 A3023 RMK AO2 SLP237 T01720133 @K3MWawos
AWOS #KBOS 220254Z 22008KT 10SM CLR 17/13 A3024 RMK AO2 SLP240 T01720133 51004 http://t.co/rrzH12gr
AWOS #KBOS 220154Z 21010KT 10SM CLR 18/13 A3024 RMK AO2 SLP240 T01830133 http://t.co/rrzH12gr
AWOS #KBOS 220054Z 21008KT 10SM CLR 18/13 A3024 RMK AO2 SLP240 T01830128 http://t.co/rrzH12gr
AWOS #KBOS 212254Z 25011G16KT 10SM FEW060 23/12 A3022 RMK AO2 SLP233 T02280117 http://t.co/rrzH12gr
AWOS #KBOS 212154Z 24011G26KT 10SM FEW060 24/12 A3021 RMK AO2 PK WND 26026/2150 SLP231 T02440117 http://t.co/rrzH12gr
AWOS #KBOS 212054Z 23014KT 10SM FEW060 25/12 A3021 RMK AO2 SLP231 T02500117 56019 http://t.co/rrzH12gr
AWOS #KBOS 211954Z 25012KT 10SM FEW060 25/13 A3023 RMK AO2 SLP235 T02500128 http://t.co/rrzH12gr
AWOS #KBOS 211854Z 23014KT 10SM FEW060 25/12 A3024 RMK AO2 SLP241 T02500122 @KEIKawos
AWOS #KBOS 211754Z 24011KT 10SM FEW060 24/13 A3027 RMK AO2 SLP250 T02440128 10244 20156 58021 http://t.co/rrzH12gr
AWOS #KBOS 211654Z 23009KT 10SM FEW060 23/13 A3030 RMK AO2 SLP259 T02330133 @KALSawos
AWOS #KBOS 211554Z 24010KT 10SM FEW060 22/13 A3031 RMK AO2 SLP265 T02170133 http://t.co/rrzH12gr
AWOS #KBOS 211454Z 23009KT 10SM FEW060 19/13 A3033 RMK AO2 SLP271 T01940133 50005 http://t.co/rrzH12gr
AWOS #KBOS 211354Z 22009KT 10SM CLR 19/13 A3034 RMK AO2 SLP272 T01890128 http://t.co/rrzH12gr
AWOS #KBOS 211254Z 27009KT 10SM CLR 18/13 A3033 RMK AO2 SLP270 T01780128 @KPSOawos
AWOS #KBOS 211154Z 23006KT 10SM CLR 16/13 A3032 RMK AO2 SLP266 T01560128 10156 20133 53009 @KPSOawos
AWOS #KBOS 211054Z 23006KT 10SM CLR 14/12 A3031 RMK AO2 SLP263 T01390117 http://t.co/rrzH12gr
